{"type":"FeatureCollection", "features":[
{"type":"Feature","geometry":{"type":"MultiLineString","coordinates":[[[-2.6052237,50.6619384,0],[-2.6059667,50.6617709,0],[-2.6057011,50.6619503,0],[-2.6038209,50.6632951,0],[-2.6033435,50.6634924,0],[-2.6028714,50.6635094,0],[-2.6025978,50.6636114,0],[-2.6023511,50.6642778,0],[-2.6022545,50.6643968,0],[-2.6021794,50.6644819,0],[-2.6020453,50.6648219,0],[-2.601541,50.6655529,0],[-2.601482,50.6658454,0],[-2.6014606,50.666488,0],[-2.6008651,50.6664268,0],[-2.6005057,50.6663333,0],[-2.6002,50.6662126,0],[-2.599634,50.6657485,0],[-2.5994329,50.6651755,0],[-2.5989635,50.665133,0],[-2.598022,50.6651313,0],[-2.5975606,50.6652061,0],[-2.5975875,50.6654271,0],[-2.5977323,50.6657434,0],[-2.5970189,50.666624,0],[-2.5972871,50.6667192,0],[-2.5976948,50.6667192,0],[-2.5983975,50.6668076,0],[-2.5985638,50.6671306,0],[-2.5987354,50.6671748,0],[-2.5990573,50.6672394,0],[-2.5992665,50.6672156,0],[-2.5994114,50.667219,0],[-2.5998298,50.6671986,0],[-2.5999854,50.667406,0],[-2.6001517,50.6676508,0],[-2.6007686,50.6683342,0],[-2.6013265,50.6689632,0],[-2.6015947,50.669242,0],[-2.6018683,50.6693916,0],[-2.6020721,50.6694936,0],[-2.6024423,50.6698302,0],[-2.6027105,50.6702144,0],[-2.603381,50.6706156,0],[-2.6037244,50.6709454,0],[-2.603542,50.6710882,0],[-2.6036385,50.6715369,0],[-2.6037351,50.6720299,0],[-2.604116,50.6724175,0],[-2.6048187,50.6726384,0],[-2.6055483,50.6730668,0],[-2.6059667,50.6733626,0],[-2.6063046,50.6735836,0],[-2.6067928,50.6739847,0],[-2.6074848,50.6742907,0],[-2.6077906,50.6744267,0],[-2.6081232,50.6744505,0],[-2.609711,50.6743587,0],[-2.613493,50.6741105,0],[-2.6164005,50.6739473,0],[-2.617806,50.6738215,0],[-2.6201395,50.6739269,0],[-2.6220599,50.6740323,0],[-2.6241735,50.6743281,0],[-2.6253108,50.6746034,0],[-2.6262764,50.6750284,0],[-2.6271239,50.6753445,0],[-2.6275263,50.6756233,0],[-2.6276389,50.6761332,0],[-2.6284972,50.6774522,0],[-2.6282612,50.6784448,0],[-2.6282612,50.6794374,0],[-2.6279823,50.680226,0],[-2.6283041,50.6818031,0],[-2.6284543,50.6832987,0],[-2.6300636,50.6844135,0],[-2.6316944,50.6850253,0],[-2.6322738,50.6853244,0],[-2.6325527,50.6858274,0],[-2.6328961,50.686915,0],[-2.6332179,50.6874044,0],[-2.6317696,50.6890018,0],[-2.631378,50.6897358,0],[-2.6274566,50.6893348,0],[-2.629478,50.6895948,0],[-2.6313846,50.6897894,0],[-2.6314244,50.6903578,0],[-2.6312313,50.6918395,0],[-2.6314888,50.6937697,0],[-2.631403,50.6953872,0],[-2.6313172,50.6959513,0],[-2.6313386,50.6968008,0],[-2.631684,50.6969419,0],[-2.6317538,50.696862,0],[-2.6319067,50.6968094,0],[-2.632427,50.6969113,0],[-2.6327435,50.6971593,0],[-2.6331217,50.6973649,0],[-2.6337359,50.6974685,0],[-2.6337869,50.6974838,0],[-2.6340283,50.6974584,0],[-2.6353855,50.6972681,0],[-2.6371826,50.697353,0],[-2.6375527,50.6977268,0],[-2.6394571,50.6974753,0],[-2.6404012,50.6972001,0],[-2.6406265,50.6972103,0],[-2.640648,50.697003,0],[-2.6409859,50.6965715,0],[-2.641576,50.6968501,0],[-2.6419408,50.696687,0],[-2.642547,50.696721,0],[-2.6433946,50.6964764,0],[-2.6442851,50.6962147,0],[-2.6475627,50.6952429,0],[-2.6491989,50.6953414,0],[-2.6503361,50.69544,0],[-2.651173,50.6955249,0],[-2.6519133,50.6955487,0],[-2.6531042,50.6956031,0],[-2.6542575,50.6956167,0],[-2.6552714,50.6956404,0],[-2.656752,50.6956472,0],[-2.6571275,50.6956982,0],[-2.6574869,50.6956642,0],[-2.6577122,50.6954705,0],[-2.6582969,50.6955657,0],[-2.6592089,50.6956778,0],[-2.6599599,50.6957934,0],[-2.6599105,50.69558,0],[-2.6599802,50.6957991,0],[-2.6603611,50.6958399,0],[-2.6610209,50.6957983,0],[-2.6613656,50.6958306,0],[-2.6624089,50.6957991,0],[-2.6624612,50.6953344,0],[-2.6637541,50.6944238,0],[-2.6669298,50.6930815,0],[-2.6671605,50.6930883,0],[-2.6687269,50.6929693,0],[-2.6688181,50.6929795,0],[-2.6696922,50.6921362,0],[-2.6697793,50.6920062,0],[-2.6695111,50.6918839,0],[-2.6698048,50.6919985,0],[-2.6700535,50.6916027,0],[-2.6704652,50.6912603,0],[-2.6706798,50.6910224,0],[-2.6711384,50.6908321,0],[-2.6713262,50.6907641,0],[-2.6718787,50.6900641,0],[-2.6722918,50.6896121,0],[-2.6728282,50.6889188,0],[-2.673413,50.6882119,0],[-2.6740245,50.6872093,0],[-2.6747219,50.686329,0],[-2.6747004,50.6860163,0],[-2.6748989,50.6856901,0],[-2.6751618,50.6854522,0],[-2.6755051,50.685221,0],[-2.6760576,50.6848914,0],[-2.6767389,50.6845481,0],[-2.6771949,50.6843543,0],[-2.6778976,50.6838411,0],[-2.6778225,50.6834774,0],[-2.6779137,50.6832769,0],[-2.6785333,50.6823303,0],[-2.6798127,50.682264,0],[-2.6803438,50.6821552,0],[-2.6808641,50.6824305,0],[-2.6814129,50.6825979,0],[-2.6822498,50.6828358,0],[-2.6838537,50.6832947,0],[-2.6846745,50.6836651,0],[-2.6853879,50.6838997,0],[-2.6861926,50.6842124,0],[-2.6871421,50.6845828,0],[-2.6878288,50.6848412,0],[-2.6885047,50.685147,0],[-2.6893938,50.6856755,0],[-2.689709,50.6857554,0],[-2.6899209,50.685905,0],[-2.6909107,50.6862346,0],[-2.691844,50.6866051,0],[-2.6927479,50.6870367,0],[-2.6935178,50.6874955,0],[-2.6942218,50.6878685,0],[-2.6947784,50.687956,0],[-2.6948535,50.6881413,0],[-2.6950627,50.6883027,0],[-2.6957976,50.6887412,0],[-2.695996,50.6888414,0],[-2.696106,50.6889671,0],[-2.6974954,50.6895177,0],[-2.6996144,50.6898609,0],[-2.6999845,50.6899119,0],[-2.7007892,50.6899969,0],[-2.7030476,50.6906596,0],[-2.703407,50.6905678,0],[-2.7035465,50.6902823,0],[-2.7041098,50.6904659,0],[-2.7053382,50.6908703,0],[-2.7066096,50.6912237,0],[-2.707425,50.6915228,0],[-2.7081545,50.6916995,0],[-2.7087929,50.6918422,0],[-2.709737,50.6920257,0],[-2.7107831,50.6923689,0],[-2.711915,50.6927359,0],[-2.7123978,50.6929398,0],[-2.7128699,50.6932763,0],[-2.7137764,50.6935447,0],[-2.71427,50.6937418,0],[-2.7151819,50.6940409,0],[-2.7153858,50.6941666,0],[-2.716228,50.694452,0],[-2.7163031,50.6946287,0],[-2.716743,50.6948292,0],[-2.7173438,50.6950467,0],[-2.7180197,50.6953015,0],[-2.7185561,50.6955632,0],[-2.7187117,50.6956957,0],[-2.7191355,50.6958248,0],[-2.7191301,50.6959913,0],[-2.7211954,50.6971908,0],[-2.7216353,50.6973267,0],[-2.7230032,50.6980641,0],[-2.7231105,50.6980675,0],[-2.7243819,50.6985976,0],[-2.7267315,50.7006804,0],[-2.7275737,50.7006804,0],[-2.7277132,50.7009522,0],[-2.7277293,50.7012546,0],[-2.7274772,50.7012614,0],[-2.7272304,50.7011798,0],[-2.7260717,50.7011221,0],[-2.7258357,50.701156,0],[-2.7249881,50.7016861,0],[-2.7226224,50.7028616,0],[-2.722912,50.7030451,0],[-2.723309,50.7030859,0],[-2.7239581,50.7031028,0],[-2.7245965,50.7031436,0],[-2.7251329,50.70313,0],[-2.7255782,50.703147,0],[-2.7255875,50.7028395,0],[-2.7256184,50.7029109,0],[-2.7258618,50.7031333,0],[-2.7260603,50.703276,0],[-2.7263084,50.7036183,0],[-2.7264264,50.7039054,0],[-2.7267778,50.7041959,0],[-2.7270755,50.7045186,0],[-2.7269521,50.7049161,0],[-2.7276602,50.7062071,0],[-2.7274188,50.7064415,0],[-2.7271077,50.7084764,0],[-2.7270004,50.7092238,0],[-2.7267804,50.7098964,0],[-2.7266141,50.7102531,0],[-2.726539,50.7115337,0],[-2.72648,50.7117375,0],[-2.7263955,50.7125745,0],[-2.7263204,50.7128497,0],[-2.7266745,50.7135698,0],[-2.7261273,50.7143918,0],[-2.7305691,50.7144122,0],[-2.7320389,50.7145209,0],[-2.7335946,50.7145073,0],[-2.7342061,50.7145412,0],[-2.7354399,50.7148877,0],[-2.7391307,50.7158184,0],[-2.7411906,50.7163482,0],[-2.7438406,50.7171702,0],[-2.7444629,50.7171906,0],[-2.7461044,50.7177136,0],[-2.7479283,50.7185084,0],[-2.7478103,50.7192624,0],[-2.746952,50.7206345,0],[-2.746834,50.7206616,0],[-2.7466194,50.7213952,0],[-2.746437,50.7221288,0],[-2.7465228,50.7225838,0],[-2.7465658,50.7232766,0],[-2.7458724,50.7231264,0],[-2.7451817,50.7230321,0],[-2.7448237,50.7230211,0],[-2.7451831,50.723044,0],[-2.7458496,50.723162,0],[-2.7461929,50.7232215,0],[-2.7460615,50.7235317,0],[-2.7460173,50.7237287,0],[-2.7461259,50.7238102,0],[-2.7461447,50.7241396,0],[-2.7460722,50.7244537,0],[-2.7459006,50.7246778,0],[-2.745391,50.7252721,0],[-2.7451442,50.725503,0],[-2.7461849,50.7263418,0],[-2.7460454,50.727459,0],[-2.7454446,50.726695,0],[-2.7448062,50.7262943,0],[-2.7443556,50.7261211,0],[-2.7435349,50.7259547,0],[-2.7428053,50.7258188,0],[-2.7421187,50.7257441,0],[-2.7413891,50.7256626,0],[-2.7408151,50.7256253,0],[-2.7373658,50.7258868,0],[-2.7366094,50.7260328,0],[-2.7355687,50.7260464,0],[-2.7347426,50.7261415,0],[-2.7340573,50.7259962,0],[-2.7329952,50.7258671,0],[-2.7309031,50.7248416,0],[-2.7300555,50.7247805,0],[-2.7291435,50.724631,0],[-2.727663,50.7242507,0],[-2.7267403,50.7237413,0],[-2.7251739,50.7233202,0],[-2.7223951,50.7224372,0],[-2.7219123,50.7223625,0],[-2.7200669,50.7220501,0],[-2.7191335,50.7218735,0],[-2.7183289,50.7215338,0],[-2.71761,50.7211467,0],[-2.7170843,50.7210312,0],[-2.7155179,50.7209565,0],[-2.7144343,50.7209293,0],[-2.7136082,50.7209769,0],[-2.7134607,50.720751,0],[-2.7134043,50.7206152,0],[-2.7129591,50.7205642,0],[-2.7125273,50.7205082,0],[-2.7125172,50.7205674,0],[-2.7124823,50.7204961,0],[-2.7122946,50.7204791,0],[-2.7121846,50.7206388,0],[-2.7119593,50.7211855,0],[-2.7119968,50.7212297,0],[-2.7118976,50.721228,0],[-2.7114845,50.7211142,0],[-2.7112244,50.7210429,0],[-2.7108596,50.720958,0],[-2.7106611,50.7209173,0],[-2.7103634,50.7207627,0],[-2.7099128,50.7205556,0],[-2.7097974,50.7206846,0],[-2.7096955,50.7210039,0],[-2.7097089,50.7213078,0],[-2.7098108,50.7218478,0],[-2.7098833,50.7222078,0],[-2.7098296,50.7224234,0],[-2.7097492,50.7224557,0],[-2.7096499,50.7224625,0],[-2.7095185,50.7224438,0],[-2.7091162,50.7224795,0],[-2.7089257,50.7225644,0],[-2.7087219,50.7226085,0],[-2.7086092,50.7226,0],[-2.7084912,50.7225576,0],[-2.7079709,50.7225474,0],[-2.7078582,50.7225559,0],[-2.7065369,50.7235788,0],[-2.7064698,50.7235805,0],[-2.7057751,50.7243242,0],[-2.705236,50.7246587,0],[-2.7025109,50.7261665,0],[-2.7018028,50.7263804,0],[-2.7014487,50.726574,0],[-2.7012556,50.7267574,0],[-2.7007031,50.7267132,0],[-2.7003115,50.7267642,0],[-2.6998072,50.7267506,0],[-2.6995336,50.7268015,0],[-2.6992815,50.7267879,0],[-2.6990777,50.7268626,0],[-2.6986539,50.7269645,0],[-2.6985681,50.7268796,0],[-2.6982033,50.7269781,0],[-2.6976829,50.7271139,0],[-2.6971465,50.7271716,0],[-2.6964545,50.7272158,0],[-2.6958161,50.7271377,0],[-2.6945555,50.7270935,0],[-2.6939386,50.726883,0],[-2.6921147,50.7266181,0],[-2.6914226,50.7265095,0],[-2.6908379,50.7265298,0],[-2.6897382,50.7264585,0],[-2.6888853,50.7263974,0],[-2.6875925,50.7265366,0],[-2.6868468,50.7266215,0],[-2.6866805,50.725596,0],[-2.6867073,50.7252428,0],[-2.6866,50.7243497,0],[-2.6865303,50.7231747,0],[-2.6853179,50.7219894,0],[-2.6850926,50.7220064,0],[-2.6846313,50.7219691,0],[-2.6842075,50.7220268,0],[-2.6838695,50.7222543,0],[-2.683655,50.7227196,0],[-2.683596,50.7228113,0],[-2.683081,50.7228045,0],[-2.6826304,50.7228453,0],[-2.6822763,50.7230151,0],[-2.6820778,50.722886,0],[-2.6800286,50.7228588,0],[-2.6797443,50.7227739,0],[-2.6792669,50.7224106,0],[-2.6791328,50.7224004,0],[-2.6787841,50.7219589,0],[-2.6787143,50.7216261,0],[-2.6776468,50.7213034,0],[-2.6763433,50.7211166,0],[-2.676059,50.7208755,0],[-2.6756003,50.7203066,0],[-2.6753817,50.7202837,0],[-2.6751819,50.7204102,0],[-2.6727062,50.7203661,0],[-2.6725667,50.7203593,0],[-2.6725077,50.7198974,0],[-2.6723307,50.7195578,0],[-2.671982,50.7191706,0],[-2.6716279,50.7190109,0],[-2.6712685,50.7188819,0],[-2.6706141,50.7186645,0],[-2.669686,50.7184098,0],[-2.6691764,50.718257,0],[-2.6688116,50.7180871,0],[-2.6687499,50.7179615,0],[-2.6687821,50.7177933,0],[-2.6690235,50.7174911,0],[-2.6690235,50.7174316,0],[-2.6689538,50.7174316,0],[-2.6690227,50.71742,0],[-2.6690482,50.7174693,0],[-2.6690362,50.7175194,0],[-2.6688336,50.7177698,0],[-2.6687988,50.7179634,0],[-2.6688417,50.7180704,0],[-2.6691957,50.7182403,0],[-2.669751,50.7183931,0],[-2.6699468,50.7184457,0],[-2.670612,50.7186325,0],[-2.6709338,50.7187276,0],[-2.6713415,50.7188805,0],[-2.6715427,50.7187582,0],[-2.6713925,50.7182929,0],[-2.6712664,50.7179397,0],[-2.6711135,50.717561,0],[-2.6710477,50.7173821,0],[-2.6710584,50.7170306,0],[-2.6711013,50.716674,0],[-2.6711013,50.7159912,0],[-2.6709833,50.7159607,0],[-2.6707526,50.7158826,0],[-2.6632156,50.7145613,0],[-2.6611449,50.7142046,0],[-2.6596268,50.7140891,0],[-2.658908,50.7141367,0],[-2.6583984,50.7142454,0],[-2.6578619,50.7142454,0],[-2.6573362,50.7142352,0],[-2.6571216,50.7142216,0],[-2.656891,50.7140382,0],[-2.6566281,50.7139736,0],[-2.6557269,50.7140586,0],[-2.6553728,50.7140348,0],[-2.6545145,50.7138616,0],[-2.6537123,50.7137883,0],[-2.6527467,50.7137543,0],[-2.6518991,50.713734,0],[-2.6514163,50.7136049,0],[-2.6507082,50.7132312,0],[-2.6501288,50.7129935,0],[-2.6491847,50.7127557,0],[-2.6481762,50.7125859,0],[-2.6470282,50.7124432,0],[-2.6462235,50.7124228,0],[-2.6442709,50.712844,0],[-2.6426079,50.7131973,0],[-2.6409664,50.7135573,0],[-2.6397755,50.7137,0],[-2.6380696,50.7136185,0],[-2.637741,50.7137187,0],[-2.6376257,50.7137594,0],[-2.6373079,50.7138715,0],[-2.636589,50.7140558,0],[-2.6365676,50.7141157,0],[-2.6365998,50.7142027,0],[-2.6366346,50.7142842,0],[-2.6364798,50.7143202,0],[-2.6366086,50.7142743,0],[-2.6365778,50.7141971,0],[-2.6365536,50.7141444,0],[-2.6364731,50.7141079,0],[-2.6365509,50.7140111,0],[-2.636441,50.7139533,0],[-2.6362827,50.7139143,0],[-2.6359689,50.7139143,0],[-2.6356336,50.7139465,0],[-2.6353654,50.714006,0],[-2.6350703,50.7140909,0],[-2.6350006,50.714113,0],[-2.634811,50.714098,0],[-2.634638,50.7140751,0],[-2.6343859,50.7140173,0],[-2.6341552,50.7139163,0],[-2.6340318,50.7138186,0],[-2.6339084,50.7136259,0],[-2.6336536,50.7133168,0],[-2.633486,50.7132335,0],[-2.6332674,50.7131197,0],[-2.6331145,50.7130858,0],[-2.632806,50.7130977,0],[-2.6325459,50.7131045,0],[-2.632216,50.7130943,0],[-2.631819,50.7130688,0],[-2.6314059,50.7130705,0],[-2.6309687,50.7130433,0],[-2.6305852,50.7130043,0],[-2.6301426,50.7130178,0],[-2.6297751,50.7129992,0],[-2.6294479,50.7129839,0],[-2.6291153,50.712955,0],[-2.6289383,50.7129499,0],[-2.6288471,50.7130043,0],[-2.6264036,50.7136836,0],[-2.6263419,50.7136785,0],[-2.626063,50.7143986,0],[-2.6225305,50.7143714,0],[-2.6203847,50.7144869,0],[-2.6194889,50.7145209,0],[-2.6188559,50.7145277,0],[-2.6171285,50.7147111,0],[-2.6166618,50.7147111,0],[-2.6154977,50.7144258,0],[-2.6147521,50.7141167,0],[-2.6138133,50.7137804,0],[-2.6132393,50.7133354,0],[-2.6129657,50.7131656,0],[-2.6122791,50.712904,0],[-2.6116944,50.7127682,0],[-2.6112948,50.7126663,0],[-2.6110198,50.712538,0],[-2.6108146,50.7124149,0],[-2.6106108,50.7122111,0],[-2.6099885,50.7124761,0],[-2.6098651,50.7126085,0],[-2.6098597,50.7127784,0],[-2.6096795,50.7131644,0],[-2.6096151,50.7132765,0],[-2.6097036,50.7131517,0],[-2.6097948,50.7131984,0],[-2.6098533,50.7132654,0],[-2.6097809,50.7134404,0],[-2.6094,50.7137223,0],[-2.6092203,50.7138582,0],[-2.6094456,50.7140008,0],[-2.6113285,50.7144526,0],[-2.6118918,50.7147583,0],[-2.6119347,50.7157841,0],[-2.611865,50.7160184,0],[-2.6116289,50.7160422,0],[-2.6116826,50.7163105,0],[-2.6118596,50.7165755,0],[-2.6121064,50.7169015,0],[-2.6121439,50.7170578,0],[-2.6120581,50.7172582,0],[-2.6117577,50.7175129,0],[-2.6111783,50.7179612,0],[-2.6102986,50.7186031,0],[-2.6098748,50.7189801,0],[-2.6097299,50.7191635,0],[-2.6091023,50.7198224,0],[-2.6088375,50.7197719,0],[-2.6079095,50.7198704,0],[-2.6073033,50.7198636,0],[-2.6071745,50.7196938,0],[-2.6070887,50.7189636,0],[-2.6090521,50.7178598,0],[-2.6089502,50.7178122,0],[-2.6070136,50.7189092,0],[-2.6063591,50.7168986,0],[-2.6037199,50.714684,0],[-2.6035428,50.7145719,0],[-2.6033658,50.7145277,0],[-2.6011932,50.7142594,0],[-2.6011127,50.714222,0],[-2.6009733,50.714273,0],[-2.6006139,50.7140454,0],[-2.5997268,50.7134552,0],[-2.5986807,50.7129118,0],[-2.5974254,50.7122222,0],[-2.5954996,50.7131665,0],[-2.5947808,50.7135673,0],[-2.5903444,50.7127079,0],[-2.5865088,50.7125551,0],[-2.5860421,50.7130306,0],[-2.5855379,50.7134416,0],[-2.583891,50.7145558,0],[-2.5858276,50.7151774,0],[-2.5857793,50.7152113,0],[-2.5851999,50.7152623,0],[-2.5847815,50.7153166,0],[-2.5843202,50.7152249,0],[-2.5832097,50.714926,0],[-2.5827967,50.7145626,0],[-2.5823407,50.7141108,0],[-2.5819652,50.7140904,0],[-2.5816379,50.7140836,0],[-2.5816165,50.7140157,0],[-2.5814931,50.7138187,0],[-2.5812517,50.7130816,0],[-2.5814556,50.711801,0],[-2.5814985,50.7116039,0],[-2.5822012,50.7097017,0],[-2.581418,50.7085942,0],[-2.5800125,50.7079216,0],[-2.5797014,50.7075615,0],[-2.5774269,50.7063793,0],[-2.5770943,50.7061075,0],[-2.5766759,50.7054892,0],[-2.5760858,50.7050611,0],[-2.5753777,50.7045447,0],[-2.574809,50.7041167,0],[-2.5746374,50.7036818,0],[-2.5744228,50.7025742,0],[-2.57394,50.7013375,0],[-2.5737469,50.7009637,0],[-2.573307,50.7003114,0],[-2.5741117,50.6995707,0],[-2.5736718,50.6987144,0],[-2.5734357,50.6983407,0],[-2.5738434,50.6982795,0],[-2.5742941,50.69883,0],[-2.5750451,50.6991086,0],[-2.5755708,50.6991426,0],[-2.5764076,50.6990678,0],[-2.5772338,50.6989727,0],[-2.5778238,50.6988911,0],[-2.5785856,50.6987756,0],[-2.579283,50.6986669,0],[-2.5797658,50.6985242,0],[-2.5801742,50.6982086,0],[-2.5804551,50.6983356,0],[-2.5810774,50.6984426,0],[-2.5819142,50.6988572,0],[-2.5822441,50.699044,0],[-2.5825633,50.6991986,0],[-2.5827055,50.699236,0],[-2.5842263,50.6995962,0],[-2.5843818,50.6995809,0],[-2.5847359,50.6994857,0],[-2.5851624,50.6992717,0],[-2.5852908,50.6993067,0],[-2.585276,50.6993475,0],[-2.585323,50.6993033,0],[-2.58515,50.699249,0],[-2.5847798,50.6994452,0],[-2.5847208,50.6994758,0],[-2.5844097,50.6995616,0],[-2.5842192,50.699582,0],[-2.58366,50.6994393,0],[-2.5827883,50.6992192,0],[-2.582622,50.6991768,0],[-2.5823108,50.6990494,0],[-2.5811278,50.6984379,0],[-2.580626,50.6983329,0],[-2.5804243,50.6982759,0],[-2.5801721,50.698162,0],[-2.5798878,50.6980057,0],[-2.5797269,50.6979599,0],[-2.5790537,50.6978189,0],[-2.5786111,50.6976507,0],[-2.5779379,50.6973448,0],[-2.577616,50.6970475,0],[-2.5772405,50.6964291,0],[-2.5768382,50.6955218,0],[-2.5767738,50.6950699,0],[-2.5767952,50.6946485,0],[-2.576983,50.6941762,0],[-2.5774819,50.6932961,0],[-2.5775087,50.6930718,0],[-2.5774068,50.6928951,0],[-2.5771332,50.6927184,0],[-2.5766772,50.6925451,0],[-2.5761515,50.6921339,0],[-2.5757492,50.6922698,0],[-2.5753361,50.692178,0],[-2.5750196,50.6919639,0],[-2.5746495,50.6915697,0],[-2.5741559,50.6911008,0],[-2.5732225,50.6903429,0],[-2.5715488,50.6891841,0],[-2.5715542,50.6887117,0],[-2.5712913,50.688365,0],[-2.5710446,50.6882834,0],[-2.5710339,50.6879708,0],[-2.5711948,50.6874406,0],[-2.5708997,50.6865977,0],[-2.5709802,50.6857276,0],[-2.5718814,50.6850955,0],[-2.5726968,50.6846332,0],[-2.5739575,50.6837733,0],[-2.5742954,50.6836442,0],[-2.5746602,50.6834606,0],[-2.574864,50.6832465,0],[-2.574274,50.6831343,0],[-2.5733406,50.6831241,0],[-2.5724876,50.6830426,0],[-2.5718922,50.6830731,0],[-2.5708729,50.6832771,0],[-2.5699771,50.6835694,0],[-2.5687808,50.6840758,0],[-2.5677776,50.6844497,0],[-2.5669837,50.6844939,0],[-2.5664325,50.6843427,0],[-2.5651115,50.6845585,0],[-2.564162,50.68481,0],[-2.5632179,50.6850343,0],[-2.5624561,50.685211,0],[-2.5618071,50.6853266,0],[-2.5605732,50.685748,0],[-2.5591731,50.6862918,0],[-2.5584382,50.6865196,0],[-2.5574941,50.6866249,0],[-2.5566465,50.6866419,0],[-2.5550157,50.6866487,0],[-2.5536531,50.6867371,0],[-2.5523549,50.686839,0],[-2.5513572,50.686873,0],[-2.5505418,50.6870905,0],[-2.5497049,50.6871653,0],[-2.5493187,50.687478,0],[-2.5486964,50.6876615,0],[-2.5483209,50.687811,0],[-2.5471622,50.6877635,0],[-2.5467545,50.6877159,0],[-2.5460142,50.6877499,0],[-2.5455314,50.6878926,0],[-2.5452739,50.6880421,0],[-2.5440616,50.687811,0],[-2.543332,50.6874848,0],[-2.5426668,50.6869342,0],[-2.5416798,50.6865128,0],[-2.5410253,50.6861185,0],[-2.5398773,50.6854999,0],[-2.5395876,50.6851261,0],[-2.5380749,50.6843851,0],[-2.5368947,50.6838277,0],[-2.53609,50.6833519,0],[-2.5351674,50.6830663,0],[-2.5347704,50.682944,0],[-2.5344163,50.6827061,0],[-2.5330323,50.6822302,0],[-2.5323135,50.6817951,0],[-2.5300068,50.6802315,0],[-2.5280434,50.679205,0],[-2.5266594,50.6786203,0],[-2.5255972,50.6784775,0],[-2.524299,50.6781716,0],[-2.5237197,50.67809,0],[-2.5231618,50.6781512,0],[-2.5222056,50.6780195,0],[-2.5221855,50.6779677,0],[-2.5223142,50.6779065,0],[-2.522443,50.6777229,0],[-2.5225932,50.677434,0],[-2.5227487,50.6769478,0],[-2.5228667,50.6760878,0],[-2.5229955,50.6755337,0],[-2.5235641,50.6733308,0],[-2.5243151,50.6732016,0],[-2.5248945,50.6712433,0],[-2.5253129,50.670509,0],[-2.5253558,50.6701554,0],[-2.5249159,50.6693462,0],[-2.5242829,50.6696726,0],[-2.5233495,50.669795,0],[-2.5220835,50.6697474,0],[-2.5206781,50.6697678,0],[-2.5196266,50.6696998,0],[-2.5183284,50.6694414,0],[-2.5169444,50.6689994,0],[-2.5161076,50.6686594,0],[-2.5157964,50.6685438,0],[-2.515885,50.6682956,0],[-2.5166775,50.6680865,0],[-2.5168881,50.6680177,0],[-2.5170048,50.6679454,0],[-2.5167044,50.6678281,0],[-2.5166199,50.6678272,0],[-2.5167105,50.6678052,0],[-2.5171788,50.6678236,0],[-2.5189598,50.6680174,0],[-2.5223769,50.6683098,0],[-2.524115,50.6681704,0],[-2.5250323,50.6684186,0],[-2.5253971,50.6684968,0],[-2.5260998,50.668524,0],[-2.5271459,50.6686158,0],[-2.5288732,50.6689252,0],[-2.5312979,50.6695338,0],[-2.5319416,50.669629,0],[-2.5327517,50.6696868,0],[-2.5336851,50.6696902,0],[-2.5343717,50.6696494,0],[-2.5354017,50.6697038,0],[-2.5366892,50.6698262,0],[-2.537408,50.6698466,0],[-2.538497,50.6698092,0],[-2.5391407,50.6699588,0],[-2.5394572,50.6702206,0],[-2.5400097,50.6704518,0],[-2.5408412,50.6707,0],[-2.5416298,50.670836,0],[-2.5433303,50.6708666,0],[-2.5451328,50.670768,0],[-2.5465436,50.6707,0],[-2.5475467,50.6707068,0],[-2.5485553,50.6706796,0],[-2.5496818,50.6704722,0],[-2.5505454,50.6704076,0],[-2.5519134,50.6703838,0],[-2.5532116,50.6703906,0],[-2.5546439,50.6703498,0],[-2.5559796,50.6704076,0],[-2.5572456,50.6703532,0],[-2.5580234,50.6703702,0],[-2.5588013,50.6704892,0],[-2.5602068,50.6707442,0],[-2.562138,50.6709244,0],[-2.5633771,50.6710978,0],[-2.5635327,50.670802,0],[-2.563876,50.6708156,0],[-2.5640812,50.6708275,0],[-2.5640557,50.6705648,0],[-2.5640718,50.6702691,0],[-2.5640772,50.6700787,0],[-2.5644058,50.6698007,0],[-2.5645935,50.6696469,0],[-2.5645855,50.6695483,0],[-2.5644299,50.6695015,0],[-2.5641939,50.6693256,0],[-2.5641188,50.6692482,0],[-2.564218,50.6692006,0],[-2.5634844,50.668473,0],[-2.56283,50.6680463,0],[-2.5631813,50.6677845,0],[-2.5637848,50.6672847,0],[-2.5640289,50.6669243,0],[-2.5648228,50.6658669,0],[-2.5652922,50.6656969,0],[-2.5653271,50.6656102,0],[-2.5652145,50.6653976,0],[-2.5652279,50.6651613,0],[-2.5653351,50.664857,0],[-2.5653975,50.6644425,0],[-2.5653819,50.6638157,0],[-2.5653028,50.6637001,0],[-2.5652196,50.6635386,0],[-2.5651539,50.6633447,0],[-2.5646276,50.66138,0],[-2.564456,50.6611964,0],[-2.5643487,50.6609448,0],[-2.5642387,50.6606064,0],[-2.5639061,50.6604908,0],[-2.5637988,50.6601099,0],[-2.5634877,50.6599943,0],[-2.5632892,50.6598447,0],[-2.5631658,50.6596032,0],[-2.5631551,50.6583518,0],[-2.5608323,50.65826,0],[-2.5606285,50.658243,0],[-2.5605963,50.6581579,0],[-2.5555001,50.6571377,0],[-2.5527208,50.6561696,0],[-2.5527394,50.6558822,0],[-2.5540213,50.6545049,0],[-2.554268,50.6537295,0],[-2.5541178,50.6523146,0],[-2.5542466,50.650648,0],[-2.5544611,50.6503215,0],[-2.5544397,50.6487161,0],[-2.5543968,50.6483283,0],[-2.5538603,50.6474847,0],[-2.5537638,50.6471514,0],[-2.5533883,50.6471514,0],[-2.5538067,50.6455254,0],[-2.5536565,50.6453349,0],[-2.5531737,50.6450424,0],[-2.5530342,50.6437361,0],[-2.5526909,50.6430149,0],[-2.5525031,50.6429095,0],[-2.5522108,50.6428091,0],[-2.5516448,50.6426764,0],[-2.5509957,50.6425472,0],[-2.550698,50.6424842,0],[-2.5502098,50.6422427,0],[-2.5494052,50.6418787,0],[-2.5485925,50.6416388,0],[-2.5474123,50.6415181,0],[-2.5465362,50.6414369,0],[-2.546782,50.6411762,0],[-2.5469724,50.64087,0],[-2.5470012,50.6407286,0],[-2.5468483,50.64047,0],[-2.5468295,50.6405193,0],[-2.5468241,50.6404513,0],[-2.5468724,50.640447,0],[-2.5470374,50.6407541,0],[-2.546969,50.6409148,0],[-2.5467839,50.6412032,0],[-2.5465948,50.6414133,0],[-2.5470978,50.6414584,0],[-2.5474894,50.6414932,0],[-2.5485783,50.6415876,0],[-2.549434,50.6418598,0],[-2.5499945,50.6421047,0],[-2.5507214,50.6424619,0],[-2.5515046,50.6426235,0],[-2.5523817,50.6428327,0],[-2.552717,50.6429518,0],[-2.5529833,50.6429856,0],[-2.5545121,50.6428427,0],[-2.555982,50.6430468,0],[-2.5570602,50.6431115,0],[-2.5576718,50.6431319,0],[-2.5578971,50.64337,0],[-2.5581867,50.6434108,0],[-2.5588198,50.6439211,0],[-2.5593884,50.6446423,0],[-2.5599034,50.6455539,0],[-2.5602681,50.6458941,0],[-2.5620706,50.6468737,0],[-2.5618131,50.6472003,0],[-2.5613196,50.6474316,0],[-2.5609548,50.6480371,0],[-2.5609977,50.6485065,0],[-2.5611694,50.6488874,0],[-2.5609762,50.6502548,0],[-2.5615663,50.6504384,0],[-2.5615771,50.6511799,0],[-2.5639803,50.6515201,0],[-2.5666625,50.6518126,0],[-2.570364,50.6521323,0],[-2.5725419,50.6571658,0],[-2.573926,50.657295,0],[-2.5768227,50.6573154,0],[-2.5790436,50.6572882,0],[-2.5813825,50.6572474,0],[-2.5820262,50.6570977,0],[-2.5832386,50.6571317,0],[-2.5845582,50.6573222,0],[-2.5860173,50.6577575,0],[-2.5866182,50.6577779,0],[-2.5869937,50.6576895,0],[-2.5877554,50.6576351,0],[-2.5902231,50.6581316,0],[-2.5915534,50.6584717,0],[-2.5926156,50.6586825,0],[-2.5934095,50.6589205,0],[-2.5939138,50.6591994,0],[-2.5943966,50.6594238,0],[-2.5948365,50.6598183,0],[-2.5952012,50.6600428,0],[-2.5953085,50.6598863,0],[-2.5956197,50.6599543,0],[-2.595802,50.6598319,0],[-2.5965638,50.6596483,0],[-2.5974972,50.6597299,0],[-2.5989456,50.6598727,0],[-2.5989885,50.6597163,0],[-2.5997073,50.6595191,0],[-2.6003725,50.6595055,0],[-2.6007159,50.6595633,0],[-2.6013515,50.6593745,0],[-2.6018048,50.6592657,0],[-2.6021777,50.6592011,0],[-2.6030467,50.6590124,0],[-2.6031433,50.6590634,0],[-2.6033632,50.6591688,0],[-2.6037789,50.6593626,0],[-2.6044307,50.6592504,0],[-2.6053105,50.6592096,0],[-2.6057638,50.6591705,0],[-2.6059274,50.659162,0],[-2.6061795,50.6593014,0],[-2.6062922,50.6599475,0],[-2.6062653,50.6604712,0],[-2.6061312,50.6610969,0],[-2.6061849,50.6614948,0],[-2.6061956,50.6615943,0]]]},"properties":{"name":"Pilgrimage Route"}}
]}
