{"type":"FeatureCollection", "features":[
{"type":"Feature","geometry":{"type":"MultiLineString","coordinates":[[[-3.82893,53.280708,12.4289],[-3.82901,53.28094,12.60295],[-3.82937,53.28126,13.16707],[-3.82848,53.28171,7.89956],[-3.8297,53.28262,13.20561],[-3.82986,53.28272,13.93326],[-3.83,53.28269,15.54511],[-3.83001,53.28321,14.32001],[-3.83057,53.28395,17.36237],[-3.83158,53.28461,25.99611],[-3.83192,53.2844,26.41115],[-3.83274,53.28445,28.13166],[-3.83321,53.28439,27.0567],[-3.8342,53.28475,28.06679],[-3.83598,53.28511,19.26502],[-3.83654,53.28535,13.5083],[-3.83832,53.28545,4.86527],[-3.8383,53.28495,7.29468],[-3.83848,53.28466,9.1081],[-3.83831,53.28449,10.46842],[-3.83864,53.28408,12.92821],[-3.83829,53.28343,17.14372],[-3.83837,53.28309,20.74531],[-3.8398,53.28273,34.68864],[-3.84284,53.28231,47.20213],[-3.84399,53.28198,56.83934],[-3.84964,53.28255,102.99033],[-3.8557,53.28197,131.39537],[-3.85934,53.28104,144.91288],[-3.86082,53.28073,161.98594],[-3.86157,53.28066,172.51608],[-3.86212,53.28048,175.34235],[-3.86331,53.27997,182.89272],[-3.86451,53.27965,185.2215],[-3.86533,53.27962,186.31232],[-3.86597,53.27964,186.19716],[-3.86681,53.27956,188.00819],[-3.86785,53.27963,189.00121],[-3.86873,53.27955,186.87741],[-3.87044,53.27964,177.6457],[-3.87098,53.27935,180.45105],[-3.87255,53.27954,186.29617],[-3.87354,53.27948,182.93104],[-3.87424,53.27928,185.63587],[-3.87473,53.27903,189.0075],[-3.87766,53.27728,162.64351],[-3.87789,53.277,162.42894],[-3.87835,53.27673,161.46415],[-3.87847,53.27639,158.69328],[-3.87781,53.27619,151.26691],[-3.87673,53.2755,153.52398],[-3.87659,53.27525,156.62728],[-3.87634,53.2753,158.93303],[-3.87553,53.27493,170.8943],[-3.87465,53.27477,173.14094],[-3.87424,53.2742,174.70997],[-3.87479,53.27446,181.74449],[-3.87509,53.27445,184.73706],[-3.87502,53.27376,193.4],[-3.87527,53.27323,199.90599],[-3.87546,53.27255,212.25636],[-3.87554,53.27249,213.86852],[-3.87575,53.27243,216.84827],[-3.87702,53.27246,218.19204],[-3.87743,53.27231,218.7988],[-3.8779,53.272,223.1382],[-3.87819,53.27154,231.16676],[-3.87732,53.27099,240.47488],[-3.87737,53.26991,251.94767],[-3.87753,53.26969,252.13465],[-3.87819,53.26924,255.91928],[-3.87816,53.269,260.89541],[-3.87849,53.26862,267.75937],[-3.8785,53.26831,268.32472],[-3.8789,53.26759,271.24651],[-3.87925,53.26736,269.06466],[-3.87973,53.26732,264.3689],[-3.87985,53.26716,261.50461],[-3.87982,53.26675,258.52028],[-3.87995,53.26658,255.29333],[-3.88048,53.26627,249.7163],[-3.88091,53.26562,248.15679],[-3.88136,53.26533,247.33426],[-3.88171,53.26502,245.53895],[-3.88172,53.2648,245.76931],[-3.88165,53.26447,246.48435],[-3.88116,53.26409,245.64432],[-3.88037,53.26397,250.41639],[-3.87988,53.26401,252.01961],[-3.87883,53.26397,257.70395],[-3.87791,53.26338,266.99881],[-3.8775,53.26321,269.38273],[-3.87729,53.26273,267.81365],[-3.87687,53.26227,263.46931],[-3.87694,53.26217,264.31947],[-3.87743,53.26173,270.6695],[-3.87774,53.2614,274.26329],[-3.87865,53.26055,282.30079],[-3.8798,53.25967,288.06426],[-3.88005,53.25924,290.94828],[-3.88057,53.25878,293.51196],[-3.88173,53.25814,295.764],[-3.88187,53.25798,296.11924],[-3.88193,53.25759,297.08179],[-3.88188,53.25728,299.1184],[-3.88201,53.25701,301.83208],[-3.88254,53.2564,303.65977],[-3.88307,53.25548,308.41255],[-3.88424,53.25409,312.23006],[-3.88299,53.25363,298.2435],[-3.88304,53.25334,297.07131],[-3.88186,53.25233,289.90712],[-3.88161,53.25204,289.14005],[-3.88065,53.25141,285.99335],[-3.87961,53.25089,284.78067],[-3.87862,53.25002,284.02446],[-3.87824,53.24971,281.70975],[-3.87669,53.24879,277.062],[-3.87653,53.24848,279.27101],[-3.87653,53.24801,283.82377],[-3.87604,53.24755,284.24996],[-3.87573,53.2471,283.0469],[-3.87549,53.24687,281.27352],[-3.87509,53.24679,279.83465],[-3.87491,53.24655,279.90515],[-3.87429,53.24624,278.01094],[-3.87412,53.24587,284.21069],[-3.87379,53.24558,288.71073],[-3.8733,53.24563,288.04446],[-3.87295,53.24548,286.67657],[-3.87255,53.24565,284.94185],[-3.87299,53.2457,285.95014],[-3.87307,53.24578,286.41905],[-3.87299,53.2457,285.95014],[-3.87252,53.24561,284.5122],[-3.87295,53.24548,286.67657],[-3.8733,53.24563,288.04446],[-3.87379,53.24558,288.71073],[-3.87356,53.24547,288.99973],[-3.8733,53.24514,288.93531],[-3.87321,53.24487,290.57261],[-3.87294,53.24468,291.01521],[-3.87274,53.24395,293.95102],[-3.87252,53.24367,292.9395],[-3.87198,53.24334,291.00236],[-3.87198,53.243,290.44569],[-3.87127,53.24261,282.24925],[-3.87102,53.24177,279.22403],[-3.87109,53.24143,278.63501],[-3.87091,53.24113,273.96489],[-3.87137,53.24057,268.60022],[-3.87091,53.24113,273.96489],[-3.87109,53.24143,278.63501],[-3.87102,53.24177,279.22403],[-3.87111,53.24193,278.73789],[-3.87102,53.24177,279.22403],[-3.87109,53.24143,278.63501],[-3.87091,53.24113,273.96489],[-3.87121,53.24084,273.53593],[-3.87127,53.24062,268.38195],[-3.87158,53.24042,269.70554],[-3.87142,53.24031,266.9936],[-3.87141,53.24003,266.24398],[-3.87113,53.23967,268.23518],[-3.87196,53.23796,270.67162],[-3.87198,53.23784,270.45211],[-3.87167,53.2377,265.75229],[-3.87198,53.23667,268.44933],[-3.8722,53.23684,272.24626],[-3.87255,53.23673,281.65403],[-3.87267,53.23642,284.38405],[-3.87362,53.23564,278.37971],[-3.87418,53.23511,271.71947],[-3.87496,53.23465,266.82205],[-3.8768,53.23362,256.56721],[-3.87735,53.23361,264.28624],[-3.87753,53.23351,266.27652],[-3.87732,53.23313,257.96944],[-3.87725,53.23277,249.57859],[-3.87723,53.23233,238.51948],[-3.87717,53.23184,223.08364],[-3.87683,53.23196,217.06301],[-3.8762,53.23189,204.13577],[-3.87572,53.23202,196.55574],[-3.87537,53.23176,185.5033],[-3.87428,53.23176,167.68495],[-3.87335,53.23183,161.04499],[-3.87252,53.23191,157.08499],[-3.87081,53.23146,149.10348],[-3.87007,53.23116,134.35717],[-3.86973,53.23111,129.88301],[-3.86922,53.2312,123.92682],[-3.86884,53.23112,116.9951],[-3.86746,53.23111,99.02377],[-3.86676,53.23101,91.80953],[-3.86573,53.23063,77.94237],[-3.86499,53.23004,75.31829],[-3.86487,53.22984,73.38551],[-3.8644,53.22981,70.98625],[-3.86453,53.22975,71.65852],[-3.86241,53.2306,62.73594],[-3.86125,53.23057,59.3291],[-3.85973,53.23015,54.96968],[-3.85833,53.23,52.04404],[-3.85715,53.23004,50.55506],[-3.85657,53.23017,50.99679],[-3.85534,53.23027,62.01371],[-3.85476,53.23037,70.03088],[-3.85446,53.23037,76.35642],[-3.85284,53.23192,83.97144],[-3.852,53.23212,82.72459],[-3.85096,53.2327,75.77428],[-3.85045,53.23341,77.73244],[-3.84938,53.2336,88.98714],[-3.84803,53.23377,89.84966],[-3.84752,53.23345,95.48932],[-3.84615,53.23388,99.88581],[-3.84535,53.23405,95.0867],[-3.84445,53.23414,94.07546],[-3.8431,53.23391,84.27334],[-3.84125,53.23377,74.49654],[-3.84045,53.2339,78.20788],[-3.83945,53.23467,80.06982],[-3.83841,53.23527,75.0684],[-3.83801,53.23528,71.7134],[-3.83752,53.23544,68.21463],[-3.83722,53.23518,68.95692],[-3.83687,53.23532,68.98659],[-3.83654,53.23524,69.1],[-3.83477,53.23585,74.10036],[-3.83475,53.23439,70.01246],[-3.83491,53.23412,69.02116],[-3.83287,53.23363,65.24145],[-3.83195,53.23305,57.00229],[-3.83088,53.23282,53.3846],[-3.83015,53.23233,47.00195],[-3.82956,53.23202,44.55736],[-3.82894,53.23108,37.99669],[-3.82814,53.23064,36],[-3.82807,53.23033,35.03256],[-3.82595,53.2295,29.93785],[-3.82589,53.22934,30.21028],[-3.82519,53.22953,26.39773],[-3.82415,53.22952,17.83865],[-3.82298,53.22968,12.40184],[-3.82282,53.2295,9.22591],[-3.82278,53.22919,9.52962],[-3.82347,53.22843,7.0933],[-3.82368,53.22813,7.60968],[-3.82406,53.2266,15.43724],[-3.82418,53.22654,16.84202],[-3.82462,53.22659,20.28864],[-3.82508,53.2259,18.95404],[-3.82552,53.22583,21.16075],[-3.82563,53.22537,22.14529],[-3.82539,53.22528,21.59567],[-3.82565,53.22489,23.22848],[-3.82682,53.22382,20.70512],[-3.82745,53.22304,23.83568],[-3.82782,53.22262,19.84395],[-3.82816,53.22228,18.99038],[-3.82898,53.22151,17.81031],[-3.82942,53.22117,14.24433],[-3.82974,53.22087,11.52372],[-3.83087,53.22016,8.97703],[-3.83179,53.21943,11.47339],[-3.832,53.21893,11.29502],[-3.83259,53.21814,18.95008],[-3.83298,53.21775,21.00875],[-3.8337,53.21716,23.00723],[-3.83382,53.21639,24.01287],[-3.83395,53.21622,24.04357],[-3.83466,53.21582,25],[-3.8372,53.21552,22.24412],[-3.83895,53.21611,24.9757],[-3.83947,53.21623,24.07659],[-3.8392,53.21678,25.98093],[-3.83898,53.21732,27.4285],[-3.83889,53.21777,28],[-3.83891,53.21857,28],[-3.83924,53.21868,27.98695],[-3.83987,53.21909,29.05213],[-3.84144,53.21987,25.63188],[-3.84169,53.21991,25.98578],[-3.84618,53.22002,24.69278],[-3.84684,53.22015,27.86232],[-3.84767,53.22009,29.013],[-3.84811,53.22016,29.66021],[-3.84857,53.22036,30.84184],[-3.84917,53.2205,29.07015],[-3.84912,53.22015,27.66601],[-3.84873,53.21985,28.31168],[-3.84876,53.21956,30.40619],[-3.84964,53.21928,34.92515],[-3.85086,53.2188,37.62644],[-3.85139,53.21862,39.4285],[-3.85198,53.21859,39.7559],[-3.85235,53.21843,39.44697],[-3.85242,53.21832,39.07733],[-3.85255,53.21748,45.91205],[-3.85298,53.21723,46.30034],[-3.85327,53.21683,48.21789],[-3.8537,53.21667,51.02999],[-3.85387,53.21621,52.96679],[-3.85427,53.21599,58.03969],[-3.85448,53.21563,62.28325],[-3.85434,53.2151,62.03832],[-3.85403,53.21449,60.1174],[-3.85386,53.21372,62.6333],[-3.85405,53.21325,62.73978],[-3.85414,53.21202,59.97649],[-3.85453,53.21124,60.21664],[-3.8545,53.21042,59.37982],[-3.85424,53.21012,56.16232],[-3.85186,53.21007,45.41122],[-3.85135,53.20857,40.98476],[-3.8527,53.20638,43.58154],[-3.85354,53.20663,46.06101],[-3.85379,53.20597,38.99276],[-3.85389,53.20513,38.29351],[-3.85387,53.20397,43.61074],[-3.85446,53.20451,47.58905],[-3.85497,53.20472,54.96036],[-3.85532,53.2048,60.76144],[-3.8556,53.20474,64.99904],[-3.85664,53.20487,78.84577],[-3.85769,53.20493,91.88589],[-3.85799,53.2053,95.10306],[-3.85835,53.20547,95.12607],[-3.85839,53.20634,93.34436],[-3.85874,53.20686,92.08206],[-3.85886,53.20747,82.69509],[-3.85883,53.20757,80.14462],[-3.85854,53.20766,79.18179],[-3.85827,53.20802,82.65379],[-3.85889,53.20833,94.05002],[-3.85968,53.20847,99.27719],[-3.86075,53.20864,109.23704],[-3.86129,53.2088,113.08035],[-3.86174,53.20905,115.40304],[-3.86242,53.20969,120.55122],[-3.86423,53.21066,132.19177],[-3.86583,53.21114,144.62318],[-3.8673,53.21119,164.10262],[-3.86811,53.21126,170.21174],[-3.86805,53.21162,166.52147],[-3.86849,53.21171,171.50828],[-3.86867,53.21198,170.51215],[-3.86912,53.21227,174.24436],[-3.8689,53.2129,160.82757],[-3.86852,53.21368,149.6647],[-3.86976,53.2143,168.14638],[-3.86985,53.21509,164.79229],[-3.87091,53.2156,173.50991],[-3.8725,53.2161,189.58078],[-3.87268,53.21639,193.97538],[-3.87286,53.21649,195.9827],[-3.87648,53.2174,217.95528],[-3.87564,53.21825,207.94282],[-3.87502,53.21915,198.45945],[-3.87452,53.22014,190.38937],[-3.8738,53.22085,185.41686],[-3.8728,53.222,174.94669],[-3.87262,53.22233,170.42628],[-3.87127,53.22309,156.28545],[-3.87085,53.22342,150.41726],[-3.8705,53.22393,143.04658],[-3.8702,53.22447,136.07576],[-3.86993,53.22541,122.38508],[-3.86958,53.22545,119.28058],[-3.86908,53.22567,108.96379],[-3.86826,53.22565,100.14997],[-3.86746,53.22553,98.05338],[-3.86656,53.22573,97.12531],[-3.86476,53.22594,96.98178],[-3.86214,53.22564,66.42141],[-3.86075,53.22703,52.0546],[-3.8601,53.22745,46.17915],[-3.86008,53.228,46.86746],[-3.86028,53.22886,50.12308],[-3.86016,53.22936,51.97855],[-3.86032,53.22976,54.31727],[-3.8601,53.23013,55.57433],[-3.86061,53.23049,58.06326],[-3.86008,53.23092,56.84553],[-3.86005,53.23215,57.04216],[-3.86233,53.23303,58.98967],[-3.86192,53.23419,56.13315],[-3.86176,53.23516,53.98751],[-3.86196,53.2352,54.95282],[-3.86189,53.23528,54.60252],[-3.86196,53.2352,54.95282],[-3.86246,53.23514,57.99767],[-3.86299,53.23515,62.27632],[-3.8638,53.23531,70.16618],[-3.86426,53.23546,75.17267],[-3.86392,53.23572,74.28131],[-3.86374,53.23598,74.54468],[-3.86373,53.23632,76.30789],[-3.86356,53.23669,74.8589],[-3.86382,53.23709,81.85491],[-3.86416,53.23733,87.11874],[-3.8645,53.23749,91.29928],[-3.86474,53.23748,95.9877],[-3.86535,53.23857,116.19818],[-3.86536,53.23918,117.26422],[-3.86521,53.23951,116.66308],[-3.86532,53.23962,121.16834],[-3.86283,53.24192,124.07054],[-3.86093,53.24332,117.10743],[-3.85972,53.24469,103.87337],[-3.85944,53.24609,106.00767],[-3.8586,53.24807,94.78381],[-3.85918,53.24944,111.88039],[-3.85881,53.25074,89.12163],[-3.8588,53.25142,92.29883],[-3.85907,53.25239,84.7688],[-3.86145,53.25429,106.01172],[-3.86133,53.25458,109.05759],[-3.861,53.25478,105.95619],[-3.86085,53.255,104.88402],[-3.86098,53.25538,107.13461],[-3.86086,53.25572,109.96443],[-3.86137,53.25628,113.3041],[-3.86098,53.25641,111.74499],[-3.86104,53.25647,112.25473],[-3.86246,53.25754,116.27699],[-3.86291,53.25788,116.48189],[-3.8633,53.25786,117.51436],[-3.86338,53.25791,118.04102],[-3.8633,53.25804,118.3311],[-3.86302,53.25817,121.18476],[-3.86347,53.25896,123.6974],[-3.86346,53.25935,127.77961],[-3.86364,53.2599,133.25553],[-3.86489,53.26055,143.7071],[-3.86504,53.26071,145.02386],[-3.86509,53.26091,145.60766],[-3.86492,53.26142,145.99567],[-3.86496,53.26179,147.06839],[-3.86486,53.26197,148.39752],[-3.86508,53.26215,152.98003],[-3.86523,53.26275,160.08106],[-3.86481,53.26297,157.77495],[-3.86483,53.2631,158.82447],[-3.86616,53.26357,176.23271],[-3.86626,53.26366,178.61137],[-3.86553,53.26406,180.4727],[-3.86526,53.26427,177.52236],[-3.86505,53.26455,176.25165],[-3.8654,53.26497,175.25321],[-3.86542,53.26514,175.79407],[-3.86507,53.26547,178.54294],[-3.86483,53.26596,177.82871],[-3.86428,53.26646,175.84865],[-3.86375,53.26665,178.54003],[-3.86268,53.26685,168.96818],[-3.86197,53.26689,159.98528],[-3.86168,53.26678,157.97349],[-3.86119,53.26675,150.98233],[-3.8604,53.26691,137.71948],[-3.86018,53.26734,130.1219],[-3.86077,53.26789,130.5251],[-3.85987,53.26862,127.90717],[-3.85999,53.26975,121.20552],[-3.8595,53.27005,119.6237],[-3.85837,53.2706,113.97773],[-3.85697,53.27122,109.91822],[-3.85651,53.27147,109.01972],[-3.85618,53.27172,109.10467],[-3.85594,53.27201,109.1037],[-3.85533,53.27303,106.74152],[-3.85507,53.2732,104.05626],[-3.85468,53.27312,104.73616],[-3.85441,53.27318,104.11333],[-3.85351,53.27351,103.43986],[-3.85228,53.27409,98.11951],[-3.85216,53.27449,94.48192],[-3.85168,53.27476,91.68707],[-3.85112,53.27469,91.29819],[-3.85044,53.27514,87.21126],[-3.85011,53.27492,86.16956],[-3.84942,53.27523,82.00084],[-3.84939,53.27542,81.13123],[-3.84882,53.27574,77.96746],[-3.84814,53.27612,75.43661],[-3.84767,53.27644,73.99994],[-3.84686,53.27712,70.05793],[-3.84579,53.27606,68.89623],[-3.845,53.27581,70.00629],[-3.84462,53.27558,69.95592],[-3.84376,53.27605,65.8746],[-3.84274,53.27586,55.2563],[-3.84194,53.27582,49.94253],[-3.84148,53.27632,45.79973],[-3.84108,53.27572,41.85209],[-3.84096,53.27529,40.6031],[-3.84027,53.27503,35.41774],[-3.83994,53.27508,31.61198],[-3.83949,53.27497,25.99847],[-3.83858,53.27557,21.04664],[-3.83797,53.27584,21.4069],[-3.8367,53.27614,20.7051],[-3.8359,53.27579,12.76453],[-3.83647,53.27514,9.18688],[-3.83611,53.27584,14.87052],[-3.83646,53.27623,23.49596],[-3.83561,53.277,30.44987],[-3.83527,53.27773,32.21617],[-3.83545,53.27837,35.77148],[-3.83455,53.27931,29.38848],[-3.83265,53.28023,28.49766],[-3.83196,53.28001,20.95628],[-3.83047,53.28047,15.96702],[-3.83035,53.2804,16.07449],[-3.82924,53.2806,12.24156],[-3.82906,53.28078,11.97623]]]},"properties":{"name":"Llwybr Celynnin, Caru Conwy Camino","desc":"This figure of 8 route starts and ends at St. Mary's Church, Conwy.","type":"trackPilgrimTrack"}}
]}
