{"type":"FeatureCollection", "features":[
{"type":"Feature","geometry":{"type":"MultiLineString","coordinates":[[[0.3963891,52.7518089,0],[0.3965705,52.7506366,0],[0.396747,52.7503882,0],[0.3960653,52.7500099,0],[0.3969079,52.7484257,0],[0.3955374,52.7473478,0],[0.3984678,52.7444059,0],[0.3999543,52.7447145,0],[0.4015988,52.7431801,0],[0.4014408,52.7422692,0],[0.4002208,52.7406793,0],[0.4001045,52.7382865,0],[0.3997889,52.737272,0],[0.4005968,52.7356476,0],[0.4010651,52.7344976,0],[0.3979412,52.7306028,0],[0.3946461,52.7269418,0],[0.3943157,52.7245049,0],[0.3932064,52.7232087,0],[0.3930596,52.7217808,0],[0.3932866,52.7204821,0],[0.3920268,52.7184031,0],[0.3907103,52.7155829,0],[0.3904453,52.7129709,0],[0.3917397,52.7100741,0],[0.3931162,52.7066497,0],[0.3970244,52.7032511,0],[0.3969399,52.6977275,0],[0.3974697,52.6968546,0],[0.401833,52.6951697,0],[0.4036926,52.693794,0],[0.4062603,52.694512,0],[0.4120403,52.6943087,0],[0.4142899,52.6937377,0],[0.4197582,52.6940248,0],[0.4240426,52.6926742,0],[0.4258616,52.6929686,0],[0.4274231,52.6942514,0],[0.4312163,52.6941296,0],[0.4321109,52.6940211,0],[0.4336064,52.6933664,0],[0.4355673,52.6938256,0],[0.4458535,52.6932634,0],[0.4540369,52.6938189,0],[0.4560094,52.6937413,0],[0.4571244,52.6945219,0],[0.4588402,52.6948602,0],[0.4703472,52.6939831,0],[0.4830244,52.6911285,0],[0.4840602,52.688329,0],[0.4909577,52.6843741,0],[0.4971396,52.6836019,0],[0.5103302,52.6798472,0],[0.5108088,52.6784404,0],[0.5173353,52.6776854,0],[0.5255308,52.6606662,0],[0.5213793,52.6680472,0],[0.5176183,52.6774775,0],[0.5469476,52.6778923,0],[0.5489775,52.6783139,0],[0.5520283,52.6801607,0],[0.5576603,52.6818173,0],[0.5631991,52.6840241,0],[0.5658445,52.6855882,0],[0.567194,52.6862642,0],[0.5686536,52.686411,0],[0.5717442,52.687966,0],[0.5771105,52.6875473,0],[0.5799209,52.6878496,0],[0.5812223,52.6878579,0],[0.5821129,52.6876022,0],[0.5832261,52.687086,0],[0.5823875,52.6901587,0],[0.5919145,52.6937542,0],[0.6021566,52.6962081,0],[0.6038217,52.6982072,0],[0.6035539,52.6998908,0],[0.606408,52.7012842,0],[0.616246,52.7045568,0],[0.6206046,52.7054925,0],[0.6283913,52.7053508,0],[0.6344603,52.7058649,0],[0.6375395,52.7055652,0],[0.6454404,52.7035543,0],[0.6476985,52.7037944,0],[0.6588882,52.7048347,0],[0.6713058,52.7051527,0],[0.6735987,52.7041967,0],[0.6750652,52.7025582,0],[0.6757357,52.7005273,0],[0.6821517,52.6997455,0],[0.6782812,52.696656,0],[0.6723428,52.6974979,0],[0.666189,52.6913059,0],[0.6631729,52.6871997,0],[0.6633566,52.6747674,0],[0.6376699,52.6660817,0],[0.6284993,52.6614008,0],[0.6115965,52.6555327,0],[0.6120039,52.6474926,0],[0.6171737,52.6404886,0],[0.6248665,52.6302703,0],[0.6298253,52.6240978,0],[0.6249841,52.620695,0],[0.6302197,52.6167088,0],[0.6359862,52.6155062,0],[0.6403309,52.6103362,0],[0.6454332,52.6066204,0],[0.6488421,52.6045783,0],[0.6427804,52.6032206,0],[0.6360199,52.6002801,0],[0.6366242,52.5994635,0],[0.6296877,52.5961872,0],[0.6260541,52.5949759,0],[0.6287845,52.591515,0],[0.6188555,52.5906628,0],[0.6210385,52.5842148,0],[0.599119,52.5829588,0],[0.597933,52.5816691,0],[0.5861939,52.5832131,0],[0.5872637,52.5869679,0],[0.5869603,52.5874773,0],[0.5752183,52.5837967,0],[0.5737595,52.5846381,0],[0.572647,52.5828838,0],[0.5665457,52.5808799,0],[0.5609666,52.5734467,0],[0.5575431,52.5688675,0],[0.5545108,52.5685364,0],[0.553951,52.5672054,0],[0.5353762,52.567378,0],[0.531637,52.5661832,0],[0.5273601,52.5667876,0],[0.5247854,52.5661033,0],[0.519127,52.5672525,0],[0.5154363,52.5698948,0],[0.5182762,52.5670718,0],[0.5108638,52.5625542,0],[0.5102156,52.5608897,0],[0.5099082,52.5574738,0],[0.5071746,52.5568798,0],[0.508327,52.5558489,0],[0.5067617,52.552169,0],[0.4989681,52.5525351,0],[0.4963038,52.5508912,0],[0.4927185,52.5504072,0],[0.4913053,52.5477754,0],[0.4799205,52.5468961,0],[0.4696144,52.5505944,0],[0.4597218,52.5522492,0],[0.4455335,52.5543999,0],[0.4370448,52.5509423,0],[0.4296459,52.5524813,0],[0.4275921,52.5538208,0],[0.4209462,52.5557028,0],[0.417269,52.5588872,0],[0.4113992,52.5615794,0],[0.4098278,52.5630528,0],[0.4075626,52.5632333,0],[0.4036065,52.5640295,0],[0.4011393,52.5638779,0],[0.3993963,52.5648975,0],[0.3960472,52.5639927,0],[0.3932602,52.5640265,0],[0.3895687,52.5629823,0],[0.38945,52.5581812,0],[0.3864346,52.5581077,0],[0.3857376,52.5574282,0],[0.3826463,52.5578934,0],[0.3700375,52.556782,0],[0.366257,52.5574393,0],[0.3536467,52.557752,0],[0.3569325,52.5547115,0],[0.3647344,52.5483374,0],[0.3647382,52.5470844,0],[0.3600829,52.5405341,0],[0.3594432,52.5382201,0],[0.3610405,52.5351465,0],[0.3591171,52.5314269,0],[0.3633817,52.526707,0],[0.3662979,52.5250604,0],[0.3677151,52.521386,0],[0.3759447,52.5152152,0],[0.3736801,52.5065367,0],[0.369109,52.5040332,0],[0.3661974,52.5002892,0],[0.3643875,52.4997961,0],[0.3639051,52.4976359,0],[0.357529,52.4934911,0],[0.3473077,52.4854769,0],[0.3373967,52.4773338,0],[0.3323121,52.4742403,0],[0.3227422,52.4649667,0],[0.3212976,52.4652493,0],[0.3177317,52.4622099,0],[0.3180667,52.4574391,0],[0.3178232,52.4541601,0],[0.3079219,52.4256675,0],[0.299573,52.4092835,0],[0.3003244,52.408546,0],[0.2982121,52.4037998,0],[0.2943314,52.4001847,0],[0.2861033,52.4008233,0],[0.2861122,52.3997913,0],[0.2752575,52.3963101,0],[0.2703918,52.396234,0],[0.2678289,52.3940239,0],[0.2665129,52.3954587,0],[0.2633289,52.3968173,0],[0.2634952,52.3986256,0]]]},"properties":{"name":"R754"}}
]}
