{"type":"FeatureCollection", "features":[
{"type":"Feature","geometry":{"type":"Point","coordinates":[-1.7722466,53.2786302]},"properties":{}},
{"type":"Feature","geometry":{"type":"Point","coordinates":[-1.77165,53.27812]},"properties":{}},
{"type":"Feature","geometry":{"type":"Point","coordinates":[-1.75419,53.27282]},"properties":{}},
{"type":"Feature","geometry":{"type":"Point","coordinates":[-1.75786,53.26562]},"properties":{}},
{"type":"Feature","geometry":{"type":"Point","coordinates":[-1.75083,53.25581]},"properties":{}},
{"type":"Feature","geometry":{"type":"Point","coordinates":[-1.75978,53.25464]},"properties":{}},
{"type":"Feature","geometry":{"type":"Point","coordinates":[-1.76176,53.25389]},"properties":{}},
{"type":"Feature","geometry":{"type":"Point","coordinates":[-1.7664,53.25478]},"properties":{}},
{"type":"Feature","geometry":{"type":"Point","coordinates":[-1.77317,53.25521]},"properties":{}},
{"type":"Feature","geometry":{"type":"Point","coordinates":[-1.77619,53.25611]},"properties":{}},
{"type":"Feature","geometry":{"type":"Point","coordinates":[-1.77876,53.25663]},"properties":{}},
{"type":"Feature","geometry":{"type":"Point","coordinates":[-1.78295,53.25696]},"properties":{}},
{"type":"Feature","geometry":{"type":"Point","coordinates":[-1.78906,53.25687]},"properties":{}},
{"type":"Feature","geometry":{"type":"Point","coordinates":[-1.7915,53.2572]},"properties":{}},
{"type":"Feature","geometry":{"type":"Point","coordinates":[-1.79338,53.25607]},"properties":{}},
{"type":"Feature","geometry":{"type":"Point","coordinates":[-1.79514,53.2559]},"properties":{}},
{"type":"Feature","geometry":{"type":"Point","coordinates":[-1.79778,53.25637]},"properties":{}},
{"type":"Feature","geometry":{"type":"Point","coordinates":[-1.80014,53.25652]},"properties":{}},
{"type":"Feature","geometry":{"type":"Point","coordinates":[-1.80494,53.25655]},"properties":{}},
{"type":"Feature","geometry":{"type":"Point","coordinates":[-1.80755,53.25796]},"properties":{}},
{"type":"Feature","geometry":{"type":"Point","coordinates":[-1.8129,53.25856]},"properties":{}},
{"type":"Feature","geometry":{"type":"Point","coordinates":[-1.81709,53.26443]},"properties":{}},
{"type":"Feature","geometry":{"type":"Point","coordinates":[-1.81473,53.2644]},"properties":{}},
{"type":"Feature","geometry":{"type":"Point","coordinates":[-1.81688,53.26481]},"properties":{}},
{"type":"Feature","geometry":{"type":"Point","coordinates":[-1.81785,53.26712]},"properties":{}},
{"type":"Feature","geometry":{"type":"Point","coordinates":[-1.80877,53.26849]},"properties":{}},
{"type":"Feature","geometry":{"type":"Point","coordinates":[-1.80598,53.27413]},"properties":{}},
{"type":"Feature","geometry":{"type":"Point","coordinates":[-1.79632,53.27396]},"properties":{}},
{"type":"Feature","geometry":{"type":"Point","coordinates":[-1.7759,53.27769]},"properties":{}},
{"type":"Feature","geometry":{"type":"Point","coordinates":[-1.77557,53.27797]},"properties":{}},
{"type":"Feature","geometry":{"type":"Point","coordinates":[-1.77402,53.27779]},"properties":{}},
{"type":"Feature","geometry":{"type":"Point","coordinates":[-1.7727,53.27835]},"properties":{}},
{"type":"Feature","geometry":{"type":"MultiLineString","coordinates":[[[-1.7722466,53.2786302],[-1.77217,53.27852],[-1.7718,53.27864],[-1.77168,53.27851],[-1.77178,53.2784],[-1.77185,53.27828],[-1.77182,53.27823],[-1.77173,53.27819],[-1.77155,53.27817],[-1.77165,53.27812],[-1.77167,53.27812],[-1.77144,53.27821],[-1.77116,53.27812],[-1.77024,53.27773],[-1.76964,53.2775],[-1.76844,53.27708],[-1.76638,53.27639],[-1.76423,53.27583],[-1.76337,53.27572],[-1.76299,53.27572],[-1.76258,53.27567],[-1.76224,53.27558],[-1.76019,53.27478],[-1.75814,53.27402],[-1.75683,53.27351],[-1.75655,53.27352],[-1.75572,53.27331],[-1.75513,53.2732],[-1.75434,53.27313],[-1.75436,53.27303],[-1.75417,53.27301],[-1.75419,53.27282],[-1.7543,53.27188],[-1.75432,53.2711],[-1.75442,53.27103],[-1.75483,53.2709],[-1.75547,53.27083],[-1.75619,53.27084],[-1.75633,53.27081],[-1.75651,53.2707],[-1.75658,53.27064],[-1.75711,53.27012],[-1.75749,53.26969],[-1.75807,53.26841],[-1.75828,53.268],[-1.75839,53.26757],[-1.75845,53.26702],[-1.75843,53.26676],[-1.75819,53.26605],[-1.75796,53.26571],[-1.75786,53.26562],[-1.7569,53.26478],[-1.75641,53.26428],[-1.75614,53.26391],[-1.75594,53.26344],[-1.75591,53.26324],[-1.75611,53.26201],[-1.75615,53.26166],[-1.7561,53.26132],[-1.75589,53.26078],[-1.75588,53.26027],[-1.75592,53.25982],[-1.75587,53.25921],[-1.75583,53.25901],[-1.7557,53.25869],[-1.75542,53.25827],[-1.7551,53.25759],[-1.75484,53.25743],[-1.75417,53.25719],[-1.75367,53.25703],[-1.75287,53.25685],[-1.75248,53.25672],[-1.75205,53.25649],[-1.75187,53.25636],[-1.75102,53.25597],[-1.75083,53.25581],[-1.75102,53.25597],[-1.75162,53.25625],[-1.75263,53.25651],[-1.75309,53.25655],[-1.75454,53.25652],[-1.75477,53.2565],[-1.7554,53.25638],[-1.75648,53.25611],[-1.75719,53.25589],[-1.75802,53.25558],[-1.75885,53.25524],[-1.7595,53.25515],[-1.75961,53.25505],[-1.75968,53.25492],[-1.75971,53.25471],[-1.75978,53.25464],[-1.75979,53.25463],[-1.75986,53.25461],[-1.75994,53.25463],[-1.76,53.25469],[-1.75998,53.25497],[-1.76005,53.25524],[-1.76013,53.25542],[-1.76019,53.25544],[-1.76028,53.25543],[-1.76051,53.25528],[-1.76098,53.25466],[-1.76132,53.25426],[-1.76155,53.25394],[-1.76159,53.25392],[-1.76176,53.25389],[-1.76207,53.25391],[-1.76215,53.25389],[-1.76228,53.2539],[-1.7626,53.25399],[-1.76354,53.2543],[-1.76402,53.25443],[-1.76448,53.25452],[-1.76547,53.25465],[-1.76596,53.2547],[-1.7664,53.25478],[-1.76671,53.25486],[-1.76681,53.25474],[-1.76678,53.25466],[-1.76714,53.25455],[-1.7675,53.2545],[-1.76809,53.25449],[-1.77015,53.25461],[-1.77029,53.25463],[-1.77084,53.2548],[-1.77248,53.25522],[-1.77259,53.25523],[-1.77317,53.25521],[-1.77319,53.25521],[-1.77352,53.25518],[-1.77458,53.25501],[-1.77481,53.25501],[-1.77537,53.25504],[-1.77556,53.25509],[-1.77572,53.25518],[-1.77586,53.25534],[-1.77619,53.25611],[-1.77645,53.25631],[-1.7766,53.25639],[-1.77744,53.25654],[-1.77876,53.25663],[-1.77911,53.25665],[-1.77979,53.2566],[-1.78084,53.25668],[-1.78295,53.25696],[-1.78398,53.25706],[-1.78466,53.25719],[-1.78571,53.2573],[-1.78633,53.25733],[-1.78686,53.25724],[-1.78783,53.257],[-1.78892,53.25678],[-1.78936,53.25665],[-1.78953,53.25663],[-1.78965,53.25666],[-1.78906,53.25687],[-1.78957,53.25668],[-1.78966,53.25677],[-1.78975,53.25675],[-1.78978,53.25679],[-1.78985,53.25679],[-1.78978,53.25686],[-1.78981,53.25689],[-1.78975,53.25692],[-1.78979,53.25692],[-1.78975,53.25694],[-1.78976,53.25695],[-1.79083,53.2572],[-1.7915,53.2572],[-1.7919,53.25719],[-1.79198,53.25717],[-1.79202,53.25709],[-1.7921,53.25701],[-1.79338,53.25607],[-1.79339,53.25606],[-1.79309,53.25629],[-1.79325,53.25633],[-1.79337,53.25631],[-1.79372,53.25611],[-1.79385,53.25593],[-1.79412,53.25578],[-1.79514,53.2559],[-1.79587,53.25599],[-1.79668,53.25611],[-1.79745,53.25635],[-1.79778,53.25637],[-1.79891,53.25647],[-1.80014,53.25652],[-1.80053,53.25653],[-1.803,53.25649],[-1.80494,53.25655],[-1.80511,53.25656],[-1.80512,53.25661],[-1.8056,53.25663],[-1.80564,53.25671],[-1.80588,53.25669],[-1.80608,53.25682],[-1.80634,53.25695],[-1.80709,53.25769],[-1.80755,53.25796],[-1.8081,53.25806],[-1.80864,53.25808],[-1.80892,53.25815],[-1.80909,53.25813],[-1.8092,53.25814],[-1.80943,53.25812],[-1.80963,53.25807],[-1.80993,53.25795],[-1.81065,53.25804],[-1.8109,53.25805],[-1.81135,53.25812],[-1.81181,53.25834],[-1.8129,53.25856],[-1.81381,53.25881],[-1.81458,53.25906],[-1.81521,53.25917],[-1.81558,53.25949],[-1.81561,53.25982],[-1.81557,53.26002],[-1.81538,53.26036],[-1.81522,53.26071],[-1.81509,53.2609],[-1.81498,53.26118],[-1.81535,53.26161],[-1.81535,53.26177],[-1.81552,53.2622],[-1.81556,53.26224],[-1.81573,53.26234],[-1.81576,53.26242],[-1.81627,53.26258],[-1.81651,53.26268],[-1.81663,53.26278],[-1.81676,53.26293],[-1.81689,53.26321],[-1.8171,53.26424],[-1.81709,53.26443],[-1.81709,53.26475],[-1.81685,53.26482],[-1.8163,53.26503],[-1.81618,53.26505],[-1.81608,53.26504],[-1.8156,53.2649],[-1.81556,53.26476],[-1.81532,53.2646],[-1.81498,53.26443],[-1.81473,53.2644],[-1.81498,53.26443],[-1.81532,53.2646],[-1.81556,53.26476],[-1.8156,53.2649],[-1.81608,53.26504],[-1.81618,53.26505],[-1.8163,53.26503],[-1.81688,53.26481],[-1.81689,53.2648],[-1.81709,53.26475],[-1.81715,53.26482],[-1.81704,53.26491],[-1.81706,53.26518],[-1.81734,53.26549],[-1.81736,53.26559],[-1.81746,53.2656],[-1.81747,53.26606],[-1.81756,53.26639],[-1.81785,53.26712],[-1.818,53.26746],[-1.81708,53.2675],[-1.81678,53.26749],[-1.81628,53.26744],[-1.81523,53.26765],[-1.81418,53.26783],[-1.81297,53.268],[-1.81198,53.26813],[-1.81181,53.26809],[-1.81165,53.26799],[-1.81073,53.26817],[-1.81073,53.26825],[-1.81069,53.26828],[-1.80877,53.26849],[-1.80878,53.26848],[-1.80867,53.2685],[-1.8083,53.26877],[-1.8079,53.26902],[-1.80726,53.26932],[-1.80727,53.26942],[-1.80744,53.26979],[-1.80738,53.26997],[-1.80632,53.27217],[-1.80623,53.27264],[-1.80623,53.27343],[-1.80598,53.27413],[-1.80594,53.27423],[-1.80599,53.27428],[-1.80576,53.27438],[-1.80559,53.27458],[-1.80537,53.27477],[-1.8053,53.2748],[-1.80516,53.27482],[-1.80473,53.27479],[-1.80411,53.27472],[-1.80359,53.27456],[-1.80337,53.27446],[-1.80307,53.27428],[-1.80264,53.27384],[-1.80224,53.27373],[-1.80127,53.2735],[-1.80075,53.27343],[-1.80034,53.27344],[-1.79901,53.27352],[-1.79632,53.27396],[-1.79572,53.27405],[-1.79448,53.27413],[-1.79377,53.27427],[-1.79325,53.27442],[-1.79285,53.27455],[-1.79089,53.27536],[-1.78946,53.27593],[-1.78898,53.27605],[-1.7881,53.27624],[-1.78689,53.27634],[-1.78411,53.27664],[-1.78284,53.27668],[-1.78247,53.27671],[-1.7823,53.27677],[-1.7815,53.27711],[-1.78104,53.27728],[-1.77999,53.27763],[-1.77846,53.27776],[-1.77659,53.27777],[-1.77589,53.2777],[-1.7759,53.27769],[-1.77591,53.27768],[-1.77572,53.27797],[-1.77557,53.27797],[-1.77496,53.27795],[-1.77394,53.27787],[-1.77402,53.27779],[-1.77403,53.27778],[-1.77385,53.27795],[-1.77352,53.27799],[-1.77339,53.27802],[-1.77326,53.27811],[-1.77295,53.27826],[-1.7727,53.27835]]]},"properties":{"name":"Mills &amp; Martyrs Tideswell Parish Pilgrimage"}}
]}
