{"type":"FeatureCollection", "features":[
{"type":"Feature","geometry":{"type":"Point","coordinates":[-0.02579,51.08949]},"properties":{}},
{"type":"Feature","geometry":{"type":"Point","coordinates":[-0.02728,51.0944]},"properties":{}},
{"type":"Feature","geometry":{"type":"Point","coordinates":[-0.00417,51.09927]},"properties":{}},
{"type":"Feature","geometry":{"type":"Point","coordinates":[0.014,51.09754]},"properties":{}},
{"type":"Feature","geometry":{"type":"Point","coordinates":[0.03969,51.09884]},"properties":{}},
{"type":"Feature","geometry":{"type":"Point","coordinates":[0.0963,51.10389]},"properties":{}},
{"type":"Feature","geometry":{"type":"Point","coordinates":[0.15035,51.11276]},"properties":{}},
{"type":"Feature","geometry":{"type":"Point","coordinates":[0.18136,51.14094]},"properties":{}},
{"type":"Feature","geometry":{"type":"Point","coordinates":[0.17884,51.14938]},"properties":{}},
{"type":"Feature","geometry":{"type":"Point","coordinates":[0.19145,51.15731]},"properties":{}},
{"type":"Feature","geometry":{"type":"Point","coordinates":[0.22021,51.18821]},"properties":{}},
{"type":"Feature","geometry":{"type":"Point","coordinates":[0.24509,51.19255]},"properties":{}},
{"type":"Feature","geometry":{"type":"Point","coordinates":[0.26429,51.19806]},"properties":{}},
{"type":"Feature","geometry":{"type":"Point","coordinates":[0.28081,51.19443]},"properties":{}},
{"type":"Feature","geometry":{"type":"Point","coordinates":[0.3074,51.20125]},"properties":{}},
{"type":"Feature","geometry":{"type":"Point","coordinates":[0.34413,51.20145]},"properties":{}},
{"type":"Feature","geometry":{"type":"Point","coordinates":[0.39242,51.20734]},"properties":{}},
{"type":"Feature","geometry":{"type":"Point","coordinates":[0.41671,51.22111]},"properties":{}},
{"type":"Feature","geometry":{"type":"Point","coordinates":[0.41838,51.22408]},"properties":{}},
{"type":"Feature","geometry":{"type":"Point","coordinates":[0.41463,51.24316]},"properties":{}},
{"type":"Feature","geometry":{"type":"Point","coordinates":[0.4457,51.24891]},"properties":{}},
{"type":"Feature","geometry":{"type":"Point","coordinates":[0.4596,51.25899]},"properties":{}},
{"type":"Feature","geometry":{"type":"Point","coordinates":[0.48614,51.25536]},"properties":{}},
{"type":"Feature","geometry":{"type":"Point","coordinates":[0.51728,51.26718]},"properties":{}},
{"type":"Feature","geometry":{"type":"Point","coordinates":[0.5194,51.27097]},"properties":{}},
{"type":"Feature","geometry":{"type":"Point","coordinates":[0.51532,51.28155]},"properties":{}},
{"type":"Feature","geometry":{"type":"Point","coordinates":[0.50841,51.28809]},"properties":{}},
{"type":"Feature","geometry":{"type":"Point","coordinates":[0.51365,51.29242]},"properties":{}},
{"type":"Feature","geometry":{"type":"Point","coordinates":[0.48972,51.29739]},"properties":{}},
{"type":"Feature","geometry":{"type":"Point","coordinates":[0.4852,51.29896]},"properties":{}},
{"type":"Feature","geometry":{"type":"Point","coordinates":[0.46359,51.31096]},"properties":{}},
{"type":"Feature","geometry":{"type":"Point","coordinates":[0.46586,51.32802]},"properties":{}},
{"type":"Feature","geometry":{"type":"Point","coordinates":[0.45183,51.33108]},"properties":{}},
{"type":"Feature","geometry":{"type":"Point","coordinates":[0.45795,51.34589]},"properties":{}},
{"type":"Feature","geometry":{"type":"Point","coordinates":[0.45067,51.3648]},"properties":{}},
{"type":"Feature","geometry":{"type":"Point","coordinates":[0.49013,51.37943]},"properties":{}},
{"type":"Feature","geometry":{"type":"Point","coordinates":[0.49775,51.38838]},"properties":{}},
{"type":"Feature","geometry":{"type":"Point","coordinates":[0.50078,51.39222]},"properties":{}},
{"type":"Feature","geometry":{"type":"Point","coordinates":[0.50312,51.39046]},"properties":{}},
{"type":"Feature","geometry":{"type":"Point","coordinates":[0.50489,51.39084]},"properties":{}},
{"type":"Feature","geometry":{"type":"Point","coordinates":[0.50577,51.39151]},"properties":{}},
{"type":"Feature","geometry":{"type":"Point","coordinates":[0.50505,51.39287]},"properties":{}},
{"type":"Feature","geometry":{"type":"Point","coordinates":[0.50846,51.39405]},"properties":{}},
{"type":"Feature","geometry":{"type":"Point","coordinates":[0.50939,51.3937]},"properties":{}},
{"type":"Feature","geometry":{"type":"Point","coordinates":[0.50988,51.39184]},"properties":{}},
{"type":"Feature","geometry":{"type":"Point","coordinates":[0.50967,51.39135]},"properties":{}},
{"type":"Feature","geometry":{"type":"Point","coordinates":[0.50717,51.39044]},"properties":{}},
{"type":"Feature","geometry":{"type":"Point","coordinates":[0.50972,51.38685]},"properties":{}},
{"type":"Feature","geometry":{"type":"Point","coordinates":[0.5138,51.38518]},"properties":{}},
{"type":"Feature","geometry":{"type":"Point","coordinates":[0.51308,51.38364]},"properties":{}},
{"type":"Feature","geometry":{"type":"Point","coordinates":[0.51512,51.38341]},"properties":{}},
{"type":"Feature","geometry":{"type":"Point","coordinates":[0.51543,51.384]},"properties":{}},
{"type":"Feature","geometry":{"type":"MultiLineString","coordinates":[[[-0.02579,51.08949],[-0.02584,51.08949],[-0.02584,51.08961],[-0.02665,51.08978],[-0.02688,51.08978],[-0.02694,51.08975],[-0.02709,51.08958],[-0.02799,51.08985],[-0.0283,51.08999],[-0.02857,51.09019],[-0.02879,51.0904],[-0.02908,51.09087],[-0.02924,51.09141],[-0.02945,51.09194],[-0.02988,51.09229],[-0.03019,51.09244],[-0.0308,51.09265],[-0.03032,51.09321],[-0.03014,51.09351],[-0.02999,51.09365],[-0.02975,51.09371],[-0.02919,51.09375],[-0.02875,51.09383],[-0.02822,51.09396],[-0.0277,51.09412],[-0.02751,51.09421],[-0.02736,51.0943],[-0.02728,51.0944],[-0.02718,51.09454],[-0.02707,51.09487],[-0.02705,51.09517],[-0.02702,51.09527],[-0.02697,51.09535],[-0.02677,51.09552],[-0.02667,51.09564],[-0.02637,51.09556],[-0.02622,51.09557],[-0.02609,51.09561],[-0.02597,51.09569],[-0.02583,51.09582],[-0.02549,51.09607],[-0.02527,51.0962],[-0.02516,51.09625],[-0.025,51.09628],[-0.02367,51.09626],[-0.02317,51.09629],[-0.02281,51.09625],[-0.0225,51.09611],[-0.02238,51.09617],[-0.02217,51.0962],[-0.02198,51.0962],[-0.02178,51.09625],[-0.02179,51.09663],[-0.02137,51.09682],[-0.02056,51.09647],[-0.02012,51.09694],[-0.01978,51.09764],[-0.01949,51.09757],[-0.01913,51.09754],[-0.01896,51.09754],[-0.01842,51.09761],[-0.01792,51.09772],[-0.0176,51.09769],[-0.01684,51.09751],[-0.01635,51.09728],[-0.01593,51.09719],[-0.01551,51.09723],[-0.01493,51.09731],[-0.01416,51.09735],[-0.01403,51.09754],[-0.01397,51.09759],[-0.01353,51.09754],[-0.01339,51.09749],[-0.01333,51.09744],[-0.01332,51.09745],[-0.0127,51.09734],[-0.01113,51.09665],[-0.01086,51.09673],[-0.01075,51.09664],[-0.00886,51.09746],[-0.00803,51.09779],[-0.00765,51.09806],[-0.00721,51.0985],[-0.00717,51.09894],[-0.00709,51.09915],[-0.00698,51.09915],[-0.00537,51.09894],[-0.00518,51.09895],[-0.00427,51.09918],[-0.00417,51.09927],[-0.0041,51.09933],[-0.00405,51.09944],[-0.00389,51.09956],[-0.0037,51.09962],[-0.00342,51.09967],[-0.00305,51.09979],[-0.00275,51.09991],[-0.00214,51.10033],[-0.0015,51.10057],[-0.00089,51.10091],[7E-05,51.10128],[0.00056,51.10138],[0.00123,51.10147],[0.00294,51.10233],[0.00525,51.10256],[0.00785,51.10262],[0.0084,51.10259],[0.00882,51.10255],[0.0095,51.10244],[0.0104,51.10219],[0.01105,51.10186],[0.01133,51.10166],[0.01154,51.10143],[0.01178,51.10106],[0.01197,51.10063],[0.01197,51.10046],[0.0122,51.09995],[0.01249,51.09919],[0.01259,51.09884],[0.01255,51.0986],[0.01267,51.09843],[0.01263,51.09841],[0.01306,51.09799],[0.01305,51.09793],[0.014,51.09754],[0.01413,51.09707],[0.01444,51.09679],[0.01491,51.09624],[0.01586,51.09659],[0.01677,51.09697],[0.01786,51.09748],[0.01828,51.09749],[0.02217,51.09827],[0.02253,51.09838],[0.02261,51.09839],[0.02292,51.09834],[0.02323,51.09834],[0.02339,51.09837],[0.02381,51.0985],[0.02425,51.09861],[0.02465,51.09867],[0.02545,51.09884],[0.02603,51.09888],[0.02696,51.09889],[0.02815,51.09869],[0.02822,51.09875],[0.02856,51.09871],[0.02874,51.09864],[0.02941,51.09872],[0.02962,51.09877],[0.02985,51.0988],[0.03028,51.09876],[0.03146,51.09885],[0.03163,51.09883],[0.03171,51.09887],[0.03175,51.09894],[0.032,51.09899],[0.03207,51.09905],[0.03212,51.09916],[0.0321,51.09922],[0.03212,51.09924],[0.03257,51.09927],[0.03278,51.09923],[0.03288,51.09924],[0.0334,51.09915],[0.03347,51.09905],[0.03349,51.09897],[0.03382,51.09896],[0.03432,51.09898],[0.03439,51.09885],[0.03449,51.09883],[0.03491,51.09854],[0.03525,51.09845],[0.03634,51.09833],[0.03685,51.09816],[0.03767,51.09886],[0.03808,51.09913],[0.0381,51.09918],[0.0381,51.09927],[0.03801,51.09938],[0.03811,51.09947],[0.03903,51.09902],[0.03923,51.09894],[0.0395,51.09887],[0.03969,51.09884],[0.0395,51.09887],[0.03923,51.09894],[0.03903,51.09902],[0.03943,51.09865],[0.04,51.09828],[0.04165,51.09763],[0.04359,51.09695],[0.04802,51.09549],[0.05041,51.09473],[0.05146,51.09447],[0.05369,51.09418],[0.05646,51.09415],[0.05725,51.09417],[0.05808,51.09429],[0.05908,51.09449],[0.06012,51.09495],[0.06066,51.09525],[0.06181,51.09603],[0.06291,51.09661],[0.06454,51.09718],[0.08079,51.10094],[0.08833,51.10259],[0.0963,51.10389],[0.1048,51.10528],[0.10789,51.10577],[0.10968,51.10596],[0.1119,51.10607],[0.11189,51.10628],[0.11273,51.10626],[0.11301,51.10622],[0.11319,51.10615],[0.1134,51.10612],[0.123,51.10654],[0.12316,51.10677],[0.12334,51.10698],[0.12339,51.10711],[0.12335,51.10725],[0.12347,51.10753],[0.12359,51.10762],[0.12405,51.10779],[0.12463,51.10762],[0.12495,51.1076],[0.12528,51.10762],[0.12609,51.1078],[0.12635,51.10788],[0.12685,51.1081],[0.12718,51.10832],[0.1274,51.10858],[0.1278,51.10873],[0.12905,51.10907],[0.12971,51.10931],[0.13044,51.10968],[0.13082,51.10978],[0.13105,51.1098],[0.13196,51.11005],[0.1324,51.11026],[0.13297,51.11042],[0.13305,51.11049],[0.13363,51.11053],[0.134,51.11059],[0.13444,51.11069],[0.13449,51.11062],[0.13479,51.11059],[0.13524,51.11046],[0.13647,51.1103],[0.1366,51.11024],[0.13674,51.11007],[0.13687,51.10995],[0.13705,51.10989],[0.13759,51.10977],[0.13783,51.10969],[0.13793,51.10961],[0.13801,51.10957],[0.13814,51.10955],[0.13837,51.10963],[0.13855,51.10966],[0.1392,51.10971],[0.13988,51.10956],[0.14098,51.10954],[0.14158,51.1096],[0.14213,51.10975],[0.14263,51.10985],[0.14288,51.10997],[0.14399,51.11012],[0.14542,51.11036],[0.14805,51.11098],[0.14827,51.11105],[0.14834,51.11122],[0.14897,51.11162],[0.14931,51.11196],[0.15025,51.11262],[0.15035,51.11276],[0.15055,51.11301],[0.1508,51.11352],[0.15094,51.11372],[0.1515,51.11422],[0.15179,51.11433],[0.15202,51.11446],[0.15262,51.11503],[0.15278,51.11505],[0.15497,51.11559],[0.15514,51.11558],[0.15545,51.1155],[0.15674,51.11525],[0.15852,51.11482],[0.1587,51.11476],[0.15885,51.1149],[0.15894,51.11519],[0.16008,51.11728],[0.16003,51.11738],[0.15992,51.11795],[0.15976,51.11838],[0.15938,51.119],[0.1595,51.11907],[0.15967,51.11913],[0.15992,51.1193],[0.16048,51.11984],[0.16086,51.12039],[0.16146,51.12016],[0.1616,51.12053],[0.16201,51.12111],[0.16211,51.12121],[0.16223,51.12117],[0.16276,51.12184],[0.16319,51.12215],[0.16374,51.12245],[0.16525,51.12317],[0.16678,51.12371],[0.16757,51.12414],[0.16845,51.12459],[0.17012,51.12561],[0.17157,51.12642],[0.17201,51.12683],[0.17219,51.12695],[0.17315,51.12823],[0.17322,51.12856],[0.1734,51.12881],[0.17373,51.12904],[0.17399,51.12935],[0.17394,51.12955],[0.17388,51.1297],[0.17372,51.1298],[0.17366,51.12988],[0.17354,51.13026],[0.17342,51.13043],[0.17377,51.13056],[0.17399,51.13053],[0.17418,51.13055],[0.17445,51.13076],[0.1752,51.13103],[0.17537,51.13147],[0.17614,51.13221],[0.17665,51.13266],[0.17721,51.13312],[0.17726,51.13323],[0.17816,51.13444],[0.17852,51.13489],[0.17897,51.13536],[0.17922,51.13615],[0.17924,51.13669],[0.17932,51.13692],[0.17943,51.13735],[0.17959,51.13764],[0.17983,51.13783],[0.18002,51.13813],[0.18035,51.1385],[0.18046,51.13885],[0.18048,51.13934],[0.1806,51.13949],[0.181,51.13976],[0.181,51.13981],[0.18127,51.14001],[0.18166,51.14025],[0.18179,51.14039],[0.18139,51.14078],[0.18136,51.14094],[0.18135,51.14098],[0.18086,51.14139],[0.18102,51.14148],[0.18144,51.14197],[0.18153,51.14227],[0.18256,51.14428],[0.18213,51.14455],[0.18149,51.14534],[0.18096,51.14634],[0.18058,51.1469],[0.18018,51.14721],[0.17899,51.14719],[0.17822,51.14722],[0.17794,51.14721],[0.17716,51.14703],[0.17699,51.14806],[0.17693,51.14858],[0.17675,51.14884],[0.1783,51.14919],[0.17884,51.14938],[0.17906,51.14945],[0.17904,51.14958],[0.17922,51.14969],[0.18008,51.15003],[0.18069,51.15019],[0.18092,51.15028],[0.18151,51.15081],[0.18169,51.15125],[0.18275,51.15205],[0.18357,51.15257],[0.18383,51.15268],[0.18461,51.15267],[0.18602,51.15325],[0.18747,51.15347],[0.1882,51.1538],[0.18897,51.15436],[0.19038,51.15506],[0.19034,51.15531],[0.1904,51.15538],[0.19087,51.15577],[0.19129,51.15664],[0.19157,51.15696],[0.19174,51.15723],[0.19151,51.15728],[0.19145,51.15731],[0.19151,51.15728],[0.19174,51.15723],[0.19177,51.15733],[0.19258,51.15805],[0.19316,51.15849],[0.19333,51.15854],[0.19339,51.15868],[0.19348,51.15874],[0.19306,51.15891],[0.19296,51.15901],[0.19299,51.15908],[0.19349,51.15962],[0.19401,51.16],[0.19436,51.16038],[0.19446,51.16059],[0.19577,51.16169],[0.19582,51.16181],[0.19689,51.16102],[0.19746,51.1607],[0.19817,51.1604],[0.19873,51.16023],[0.19838,51.16075],[0.19833,51.16089],[0.19834,51.16107],[0.19842,51.16121],[0.19883,51.16164],[0.19886,51.16173],[0.19924,51.16176],[0.1995,51.16183],[0.19996,51.16214],[0.2009,51.16332],[0.20129,51.16399],[0.2017,51.16442],[0.20194,51.16464],[0.20199,51.16486],[0.20193,51.16536],[0.20198,51.1656],[0.20227,51.1659],[0.20263,51.16611],[0.20347,51.16653],[0.20381,51.16678],[0.20414,51.16711],[0.20422,51.16731],[0.20417,51.16751],[0.20404,51.16773],[0.20439,51.16778],[0.20525,51.16781],[0.20767,51.1678],[0.20838,51.16788],[0.2089,51.16801],[0.21147,51.1692],[0.21218,51.16947],[0.21198,51.16968],[0.21171,51.17007],[0.21166,51.17027],[0.21187,51.17064],[0.21195,51.17183],[0.21194,51.17207],[0.2116,51.17252],[0.21165,51.17266],[0.21232,51.17324],[0.2127,51.17367],[0.21292,51.17407],[0.21312,51.17458],[0.213,51.17482],[0.21246,51.17514],[0.21213,51.17536],[0.21203,51.17548],[0.21228,51.17597],[0.21265,51.17713],[0.21279,51.17766],[0.21276,51.17827],[0.2126,51.17892],[0.2125,51.17924],[0.21253,51.17991],[0.21244,51.18099],[0.21234,51.18129],[0.21224,51.18145],[0.21218,51.18161],[0.21198,51.1825],[0.21197,51.18274],[0.21215,51.18301],[0.21405,51.18479],[0.21435,51.18504],[0.21354,51.18553],[0.21429,51.18596],[0.2151,51.18632],[0.2163,51.18692],[0.21656,51.18718],[0.21761,51.18776],[0.21777,51.18778],[0.21819,51.1879],[0.21863,51.18796],[0.21945,51.18812],[0.22021,51.18821],[0.22103,51.18829],[0.22124,51.18835],[0.22153,51.1885],[0.22154,51.1886],[0.22148,51.18876],[0.22264,51.18892],[0.22668,51.18933],[0.22801,51.1895],[0.22851,51.18952],[0.22902,51.1896],[0.22915,51.1896],[0.22915,51.18969],[0.22906,51.18989],[0.22907,51.19022],[0.22912,51.19029],[0.22939,51.19049],[0.22975,51.19088],[0.23084,51.19141],[0.23131,51.19171],[0.23146,51.19191],[0.23158,51.19198],[0.23164,51.19209],[0.23162,51.19233],[0.23164,51.19239],[0.23186,51.19241],[0.23494,51.19209],[0.23679,51.19195],[0.23737,51.19201],[0.23782,51.19213],[0.23857,51.19225],[0.23919,51.19226],[0.23934,51.1923],[0.23962,51.1923],[0.24029,51.19235],[0.24043,51.19237],[0.24061,51.19237],[0.24101,51.19231],[0.24119,51.19232],[0.2412,51.19267],[0.24251,51.19259],[0.24324,51.1926],[0.24479,51.19255],[0.24509,51.19255],[0.24557,51.19256],[0.24712,51.19277],[0.24863,51.19328],[0.24988,51.19374],[0.25102,51.19429],[0.25179,51.19457],[0.25224,51.19481],[0.25406,51.19566],[0.25473,51.19609],[0.25566,51.19679],[0.25576,51.19692],[0.25581,51.19705],[0.25593,51.19711],[0.25602,51.19718],[0.25606,51.19737],[0.25616,51.19746],[0.25624,51.19793],[0.25649,51.1979],[0.25701,51.19789],[0.25775,51.1978],[0.25872,51.19762],[0.25966,51.19767],[0.26007,51.19775],[0.26052,51.19776],[0.26177,51.19785],[0.26206,51.19784],[0.26267,51.19787],[0.26325,51.19796],[0.26429,51.19806],[0.26514,51.19813],[0.26551,51.19822],[0.26566,51.19824],[0.26629,51.19823],[0.26639,51.19825],[0.26664,51.19836],[0.26705,51.19843],[0.26728,51.19844],[0.26767,51.19856],[0.26783,51.19863],[0.26817,51.19882],[0.26833,51.19888],[0.26848,51.19891],[0.26865,51.19891],[0.26879,51.19889],[0.26893,51.19884],[0.26993,51.19841],[0.27017,51.19827],[0.27036,51.19812],[0.27112,51.19774],[0.27138,51.19754],[0.2713,51.19751],[0.27182,51.19666],[0.27178,51.19659],[0.27196,51.19659],[0.27219,51.19666],[0.27266,51.19612],[0.27275,51.19621],[0.27285,51.19616],[0.27309,51.19609],[0.27317,51.19592],[0.2732,51.19592],[0.27317,51.1959],[0.27345,51.19572],[0.2739,51.19576],[0.27487,51.19575],[0.27519,51.1957],[0.27496,51.19537],[0.27568,51.19513],[0.27559,51.19498],[0.27637,51.19481],[0.27664,51.19477],[0.27791,51.19486],[0.27818,51.19484],[0.27865,51.19469],[0.27918,51.19446],[0.2793,51.19455],[0.2797,51.19454],[0.28051,51.19442],[0.28081,51.19443],[0.28122,51.19465],[0.28145,51.19469],[0.28202,51.19462],[0.28229,51.19463],[0.28274,51.19469],[0.28307,51.1948],[0.28333,51.19492],[0.28349,51.19506],[0.28362,51.19521],[0.28387,51.19537],[0.28424,51.19546],[0.28397,51.19582],[0.28404,51.19585],[0.28415,51.19584],[0.28424,51.19586],[0.28476,51.19588],[0.28498,51.19583],[0.28536,51.19579],[0.28557,51.1957],[0.2858,51.19566],[0.28605,51.19569],[0.28639,51.19586],[0.28647,51.19592],[0.28655,51.196],[0.28669,51.19623],[0.28694,51.19638],[0.28715,51.19662],[0.28761,51.19696],[0.2878,51.19703],[0.28787,51.19707],[0.28813,51.1971],[0.28867,51.19721],[0.28938,51.19728],[0.28987,51.19737],[0.2907,51.1975],[0.29097,51.19744],[0.29132,51.19742],[0.29172,51.19743],[0.29206,51.19754],[0.2925,51.19777],[0.29276,51.19795],[0.29292,51.19815],[0.29312,51.19836],[0.29492,51.19941],[0.29524,51.19966],[0.29568,51.19986],[0.29589,51.20008],[0.29596,51.20035],[0.29611,51.2005],[0.29628,51.20056],[0.29667,51.20082],[0.29692,51.20108],[0.29715,51.20122],[0.29731,51.20128],[0.29743,51.20138],[0.29766,51.20152],[0.29809,51.20169],[0.29843,51.20175],[0.29893,51.20173],[0.30007,51.20149],[0.30039,51.20144],[0.30085,51.20131],[0.30118,51.20137],[0.30136,51.20138],[0.30152,51.20133],[0.30203,51.20123],[0.30249,51.20117],[0.30283,51.20115],[0.30322,51.20119],[0.30409,51.20136],[0.30443,51.20145],[0.30477,51.20144],[0.30571,51.20125],[0.30604,51.20116],[0.30639,51.20112],[0.30684,51.20118],[0.30704,51.20122],[0.30731,51.20123],[0.3074,51.20125],[0.30747,51.20126],[0.30754,51.20124],[0.30769,51.20127],[0.30801,51.20138],[0.30854,51.20142],[0.30916,51.20142],[0.30937,51.20139],[0.30983,51.20123],[0.31063,51.20076],[0.31089,51.20064],[0.31257,51.20035],[0.31314,51.20035],[0.3137,51.20038],[0.31394,51.20033],[0.31407,51.20026],[0.31443,51.20023],[0.31456,51.20019],[0.31464,51.20021],[0.31473,51.20021],[0.31486,51.20018],[0.31495,51.20014],[0.31537,51.20002],[0.31546,51.20001],[0.31602,51.20027],[0.31636,51.20035],[0.31661,51.20036],[0.31706,51.20032],[0.31796,51.20037],[0.31825,51.20035],[0.31908,51.20015],[0.31927,51.20008],[0.31945,51.20003],[0.32008,51.20014],[0.32024,51.20011],[0.32044,51.20004],[0.32102,51.2],[0.32157,51.19981],[0.32174,51.19978],[0.32193,51.1998],[0.32218,51.19985],[0.32267,51.19998],[0.32289,51.20002],[0.32315,51.20001],[0.32354,51.19996],[0.32396,51.20001],[0.32525,51.20048],[0.32562,51.20068],[0.32587,51.20074],[0.32626,51.20074],[0.32672,51.20065],[0.32749,51.20073],[0.32768,51.20081],[0.32791,51.20095],[0.32815,51.20104],[0.3285,51.20107],[0.32891,51.20124],[0.32908,51.20132],[0.32925,51.20148],[0.32936,51.20155],[0.32959,51.20161],[0.33015,51.20162],[0.33048,51.20154],[0.33064,51.20145],[0.33082,51.20139],[0.33131,51.20137],[0.33141,51.20135],[0.33152,51.20136],[0.33173,51.20144],[0.332,51.20159],[0.33253,51.20177],[0.33283,51.20182],[0.33305,51.20183],[0.33333,51.20192],[0.33404,51.20223],[0.33429,51.20226],[0.33501,51.20225],[0.33589,51.20235],[0.33666,51.20228],[0.33739,51.2021],[0.33764,51.20207],[0.33795,51.20205],[0.33845,51.20176],[0.3388,51.20153],[0.33943,51.20133],[0.33976,51.20133],[0.34042,51.2015],[0.34078,51.2015],[0.34118,51.20138],[0.3419,51.20123],[0.34231,51.20121],[0.34289,51.2013],[0.34329,51.20146],[0.34355,51.20149],[0.34413,51.20145],[0.34471,51.2014],[0.34514,51.20149],[0.34543,51.20149],[0.3457,51.2014],[0.3462,51.20119],[0.34639,51.20117],[0.34659,51.20122],[0.34675,51.20136],[0.34685,51.20147],[0.34721,51.2016],[0.34774,51.20162],[0.34792,51.20166],[0.3481,51.20167],[0.34812,51.20156],[0.34828,51.2015],[0.34859,51.20141],[0.34885,51.20138],[0.34881,51.20125],[0.34909,51.20114],[0.34908,51.2011],[0.34971,51.20108],[0.34998,51.20103],[0.35031,51.20103],[0.3507,51.20095],[0.35092,51.20087],[0.35099,51.20092],[0.35139,51.20101],[0.35171,51.20105],[0.35247,51.20108],[0.35318,51.20108],[0.35347,51.20103],[0.35389,51.20082],[0.35418,51.20074],[0.35537,51.20091],[0.35561,51.20091],[0.35584,51.20088],[0.35608,51.20088],[0.35652,51.20081],[0.35726,51.20056],[0.35882,51.2003],[0.35905,51.20022],[0.35973,51.19987],[0.35999,51.19982],[0.3608,51.19994],[0.36107,51.1999],[0.36197,51.19954],[0.36224,51.19949],[0.3628,51.19966],[0.36332,51.19978],[0.36405,51.19991],[0.36432,51.19997],[0.36612,51.19995],[0.36636,51.19998],[0.36659,51.20006],[0.36671,51.20016],[0.36699,51.20023],[0.36836,51.20036],[0.36883,51.20051],[0.36923,51.20072],[0.36959,51.20097],[0.36995,51.20125],[0.3703,51.20171],[0.37086,51.20165],[0.37119,51.20166],[0.37186,51.20172],[0.37228,51.20153],[0.3732,51.20115],[0.37373,51.2011],[0.37408,51.20096],[0.37522,51.20042],[0.37559,51.20041],[0.37597,51.20043],[0.37669,51.20056],[0.37707,51.20078],[0.37736,51.20119],[0.37745,51.20141],[0.37737,51.20163],[0.37741,51.20184],[0.37759,51.20207],[0.37777,51.20221],[0.37862,51.20266],[0.37886,51.20269],[0.37923,51.20293],[0.37948,51.20311],[0.37965,51.20334],[0.37982,51.20347],[0.38003,51.20355],[0.3801,51.20361],[0.38014,51.20379],[0.38036,51.20388],[0.38059,51.20403],[0.38085,51.20424],[0.38139,51.20452],[0.382,51.20474],[0.38265,51.20495],[0.38321,51.20495],[0.38375,51.20507],[0.38441,51.20544],[0.38503,51.20566],[0.38618,51.20572],[0.38681,51.20582],[0.38749,51.20599],[0.38821,51.20624],[0.38872,51.20632],[0.38926,51.20619],[0.39018,51.20653],[0.39064,51.20664],[0.39144,51.20695],[0.39182,51.20726],[0.39242,51.20734],[0.39259,51.20736],[0.39294,51.20751],[0.39322,51.2077],[0.39329,51.20777],[0.39331,51.2079],[0.39304,51.2085],[0.39307,51.20891],[0.39333,51.20927],[0.39419,51.20965],[0.3946,51.21002],[0.39568,51.21064],[0.39598,51.21066],[0.39605,51.21073],[0.39593,51.2112],[0.39596,51.21133],[0.3961,51.2115],[0.39633,51.21171],[0.397,51.21201],[0.39763,51.21225],[0.39834,51.21234],[0.39931,51.21236],[0.40003,51.21217],[0.40086,51.21199],[0.40185,51.21154],[0.40211,51.21151],[0.40245,51.21153],[0.40327,51.21182],[0.40371,51.21195],[0.4042,51.21197],[0.40468,51.21196],[0.40516,51.21208],[0.40552,51.21265],[0.40589,51.21312],[0.40625,51.21345],[0.40627,51.21368],[0.40621,51.21393],[0.40628,51.2142],[0.4062,51.21438],[0.40633,51.2146],[0.40706,51.21477],[0.40722,51.21489],[0.40715,51.21546],[0.40733,51.21551],[0.40831,51.21567],[0.40895,51.21597],[0.40961,51.21626],[0.41042,51.2163],[0.41065,51.21642],[0.41098,51.21689],[0.41147,51.21701],[0.41173,51.21727],[0.41181,51.21783],[0.41235,51.21803],[0.41259,51.21818],[0.41269,51.2187],[0.41323,51.2189],[0.41363,51.21907],[0.41458,51.21918],[0.41506,51.21955],[0.41532,51.21991],[0.4156,51.22013],[0.4162,51.22052],[0.4165,51.22079],[0.41671,51.22111],[0.41684,51.22134],[0.41711,51.22165],[0.41732,51.22182],[0.41748,51.22191],[0.41759,51.22194],[0.41784,51.22196],[0.41826,51.22192],[0.41868,51.22184],[0.41886,51.22184],[0.41897,51.22191],[0.41913,51.22191],[0.4191,51.22207],[0.41912,51.22224],[0.41921,51.22248],[0.41916,51.22252],[0.41907,51.22265],[0.41838,51.22408],[0.41828,51.22428],[0.41723,51.22556],[0.41695,51.22583],[0.41639,51.22629],[0.41574,51.22671],[0.41527,51.22698],[0.41518,51.227],[0.41464,51.22699],[0.41391,51.227],[0.41376,51.22697],[0.41374,51.22706],[0.4139,51.2272],[0.41375,51.22729],[0.4136,51.22743],[0.41363,51.22747],[0.41357,51.22768],[0.41362,51.2289],[0.4145,51.22963],[0.41459,51.22978],[0.41451,51.23001],[0.41454,51.23058],[0.41449,51.23072],[0.41458,51.23084],[0.41461,51.23092],[0.41458,51.23129],[0.4145,51.23154],[0.41416,51.23214],[0.41416,51.23245],[0.4141,51.23259],[0.41408,51.2328],[0.41404,51.23291],[0.41407,51.23339],[0.41411,51.23366],[0.41406,51.23476],[0.41417,51.2352],[0.41447,51.23607],[0.41455,51.23625],[0.41468,51.23644],[0.41507,51.23715],[0.41558,51.23775],[0.4159,51.2382],[0.41618,51.2385],[0.4163,51.23942],[0.41613,51.23977],[0.41601,51.23988],[0.41585,51.23999],[0.41561,51.24011],[0.4154,51.24031],[0.41525,51.24049],[0.41472,51.24146],[0.41438,51.24213],[0.41442,51.24227],[0.41455,51.24248],[0.41488,51.24293],[0.41494,51.24311],[0.41463,51.24316],[0.41494,51.24311],[0.41509,51.24354],[0.41527,51.24383],[0.41544,51.24418],[0.41547,51.24436],[0.41571,51.24486],[0.41607,51.24547],[0.41651,51.24601],[0.41662,51.24611],[0.41686,51.2464],[0.41704,51.24667],[0.41722,51.24678],[0.41758,51.24718],[0.41791,51.24746],[0.41867,51.24795],[0.41897,51.24812],[0.41928,51.24834],[0.41946,51.24843],[0.41985,51.24858],[0.42014,51.24872],[0.42024,51.24884],[0.42095,51.24912],[0.42156,51.24812],[0.42197,51.24812],[0.42587,51.24829],[0.42854,51.24866],[0.43037,51.24865],[0.43193,51.24858],[0.4323,51.24858],[0.43309,51.24851],[0.43369,51.24853],[0.43395,51.24872],[0.43423,51.24884],[0.43457,51.24909],[0.43515,51.24921],[0.43654,51.24882],[0.43938,51.24778],[0.43987,51.24757],[0.44006,51.24753],[0.44077,51.24754],[0.44117,51.24753],[0.44144,51.24748],[0.44197,51.24729],[0.44272,51.24727],[0.44321,51.24719],[0.44328,51.24761],[0.44339,51.24783],[0.44351,51.24795],[0.4438,51.24808],[0.44513,51.24854],[0.4457,51.24891],[0.44733,51.24998],[0.44807,51.25031],[0.44887,51.25094],[0.44815,51.2519],[0.44869,51.25252],[0.44837,51.25269],[0.44773,51.25288],[0.44694,51.25306],[0.44664,51.25315],[0.44672,51.25317],[0.44754,51.25358],[0.44771,51.25385],[0.44787,51.25405],[0.44812,51.25428],[0.44839,51.25446],[0.44882,51.25466],[0.44932,51.25484],[0.4499,51.2551],[0.45006,51.25521],[0.45096,51.2555],[0.4513,51.25555],[0.45182,51.25567],[0.45242,51.25588],[0.45262,51.25601],[0.45291,51.25615],[0.45317,51.25625],[0.45335,51.25635],[0.45487,51.25749],[0.45527,51.25774],[0.45571,51.25792],[0.45681,51.25841],[0.45688,51.25843],[0.45703,51.25844],[0.45716,51.25847],[0.4574,51.2586],[0.45755,51.25861],[0.45787,51.25868],[0.45802,51.2587],[0.45818,51.25877],[0.4584,51.25881],[0.45884,51.25885],[0.45905,51.25891],[0.4596,51.25899],[0.45997,51.25908],[0.46032,51.25912],[0.46052,51.25911],[0.46099,51.25914],[0.46121,51.25918],[0.46135,51.25924],[0.46163,51.25931],[0.46234,51.25919],[0.46308,51.25919],[0.46388,51.25916],[0.46447,51.25909],[0.4648,51.25901],[0.46503,51.25899],[0.46541,51.2589],[0.46605,51.25868],[0.46663,51.25862],[0.46738,51.25864],[0.46827,51.25854],[0.46927,51.25853],[0.46942,51.25845],[0.46975,51.2585],[0.4701,51.25848],[0.47113,51.25824],[0.47183,51.25803],[0.47252,51.25793],[0.47289,51.25793],[0.4731,51.25798],[0.47329,51.25805],[0.47356,51.25805],[0.47388,51.25793],[0.47413,51.2579],[0.47426,51.25781],[0.47453,51.25771],[0.47499,51.25749],[0.47528,51.2574],[0.47552,51.25741],[0.47563,51.25738],[0.47578,51.25724],[0.47619,51.25713],[0.47634,51.25701],[0.47643,51.25697],[0.47683,51.25691],[0.47728,51.25678],[0.47783,51.25655],[0.47868,51.25597],[0.47897,51.25583],[0.47966,51.25526],[0.48062,51.25461],[0.48107,51.25441],[0.48119,51.25438],[0.48125,51.2544],[0.48152,51.25435],[0.48162,51.25429],[0.48171,51.25428],[0.48194,51.25426],[0.48215,51.25427],[0.48233,51.2543],[0.48262,51.25439],[0.48309,51.25446],[0.48424,51.2547],[0.48447,51.2548],[0.48455,51.25485],[0.48476,51.25488],[0.48489,51.25493],[0.48538,51.25521],[0.48557,51.25529],[0.48614,51.25547],[0.48621,51.25538],[0.48614,51.25536],[0.48621,51.25538],[0.48614,51.25547],[0.48621,51.25548],[0.48676,51.25566],[0.48744,51.2558],[0.48857,51.2561],[0.4902,51.25676],[0.49128,51.25712],[0.49241,51.25753],[0.4931,51.25774],[0.49472,51.25808],[0.49581,51.25826],[0.49688,51.25834],[0.49827,51.2589],[0.4992,51.2594],[0.49962,51.25988],[0.49999,51.26021],[0.50027,51.26068],[0.50044,51.26118],[0.50042,51.26171],[0.50046,51.26188],[0.50049,51.26214],[0.50058,51.2624],[0.50077,51.26265],[0.50098,51.26277],[0.50174,51.26359],[0.50217,51.26413],[0.50285,51.26457],[0.50314,51.26473],[0.50323,51.26483],[0.50344,51.26494],[0.50367,51.26511],[0.50397,51.26525],[0.5041,51.26528],[0.50437,51.26539],[0.50452,51.26543],[0.50502,51.2656],[0.50544,51.26576],[0.50581,51.26582],[0.50607,51.26589],[0.50625,51.26591],[0.50648,51.2659],[0.50835,51.26598],[0.50926,51.266],[0.51056,51.2661],[0.51196,51.26634],[0.51244,51.26661],[0.51268,51.2667],[0.51307,51.2668],[0.51343,51.26686],[0.51638,51.26697],[0.51664,51.26699],[0.51686,51.26703],[0.51728,51.26718],[0.51787,51.26744],[0.51809,51.26767],[0.51827,51.26791],[0.51838,51.2681],[0.51826,51.26821],[0.51756,51.26902],[0.51737,51.26905],[0.51722,51.26928],[0.51719,51.26937],[0.51722,51.26942],[0.51826,51.26977],[0.51841,51.26984],[0.51855,51.27001],[0.51854,51.27008],[0.51956,51.27059],[0.5196,51.27088],[0.5194,51.27097],[0.51841,51.27145],[0.51838,51.2714],[0.51799,51.27116],[0.51771,51.27134],[0.51804,51.27152],[0.51777,51.27164],[0.5179,51.27183],[0.51771,51.272],[0.51758,51.27206],[0.51716,51.27238],[0.51696,51.2725],[0.51691,51.27245],[0.51684,51.27241],[0.51671,51.27238],[0.51661,51.27241],[0.51653,51.27245],[0.51645,51.27256],[0.5165,51.27245],[0.51661,51.27237],[0.51673,51.27235],[0.51682,51.27236],[0.5169,51.27239],[0.51771,51.27302],[0.51768,51.27304],[0.51783,51.27325],[0.51801,51.27343],[0.51785,51.27352],[0.51782,51.27358],[0.51813,51.27419],[0.51826,51.27457],[0.51829,51.27588],[0.51819,51.27634],[0.51809,51.27668],[0.51769,51.27737],[0.51721,51.27797],[0.5164,51.27855],[0.51607,51.27882],[0.51543,51.27926],[0.51518,51.27947],[0.51504,51.27971],[0.51493,51.27996],[0.51493,51.28031],[0.51507,51.28069],[0.51532,51.2815],[0.51532,51.28155],[0.51519,51.28275],[0.51488,51.28342],[0.51427,51.28397],[0.51389,51.28412],[0.51261,51.28458],[0.51082,51.28543],[0.50951,51.28617],[0.50884,51.2866],[0.5083,51.28725],[0.50824,51.28765],[0.50841,51.28809],[0.50916,51.28902],[0.51036,51.29001],[0.5124,51.2913],[0.51294,51.2916],[0.51326,51.29186],[0.51355,51.29218],[0.51365,51.29242],[0.51369,51.29252],[0.51374,51.29289],[0.51364,51.29314],[0.51335,51.29353],[0.51291,51.2939],[0.51189,51.29451],[0.51119,51.29481],[0.51082,51.2949],[0.50899,51.29544],[0.50805,51.29565],[0.50667,51.29577],[0.50631,51.29587],[0.50614,51.29556],[0.50601,51.2956],[0.50578,51.29561],[0.50567,51.29557],[0.50392,51.29563],[0.50394,51.29555],[0.50391,51.29549],[0.50318,51.2955],[0.50263,51.29556],[0.50183,51.29562],[0.5016,51.29557],[0.50119,51.29564],[0.50092,51.29562],[0.50066,51.29557],[0.50058,51.29552],[0.50058,51.29541],[0.49971,51.29577],[0.49956,51.29564],[0.49933,51.29578],[0.49871,51.29593],[0.49818,51.29616],[0.49765,51.29632],[0.49744,51.29635],[0.49646,51.29608],[0.49582,51.29575],[0.49571,51.29576],[0.49563,51.29582],[0.49515,51.29682],[0.49483,51.29676],[0.49452,51.29666],[0.49443,51.29667],[0.49391,51.29681],[0.49355,51.29693],[0.4932,51.29697],[0.49289,51.29706],[0.49264,51.29721],[0.4923,51.29729],[0.49167,51.29732],[0.4903,51.2973],[0.48972,51.29739],[0.48914,51.29748],[0.48895,51.29722],[0.48885,51.29719],[0.48866,51.29719],[0.48777,51.29747],[0.48753,51.2975],[0.48735,51.29757],[0.48722,51.29768],[0.48683,51.29769],[0.48635,51.29772],[0.48479,51.29785],[0.48495,51.29815],[0.48511,51.2986],[0.4852,51.29896],[0.48523,51.29905],[0.4852,51.29914],[0.48521,51.29921],[0.48517,51.29927],[0.48518,51.29935],[0.48523,51.29941],[0.48492,51.29949],[0.48414,51.29974],[0.48375,51.29988],[0.48293,51.30022],[0.48262,51.30038],[0.48133,51.30124],[0.48019,51.30226],[0.47975,51.30223],[0.47969,51.30227],[0.47954,51.3023],[0.47913,51.30248],[0.47899,51.30252],[0.47928,51.30282],[0.47963,51.30327],[0.47981,51.30355],[0.47984,51.30366],[0.47907,51.30375],[0.47854,51.30396],[0.47829,51.30402],[0.47786,51.30405],[0.47716,51.30397],[0.47653,51.30393],[0.47624,51.30397],[0.47561,51.30409],[0.47386,51.30427],[0.47342,51.30436],[0.47331,51.30434],[0.47319,51.30434],[0.47304,51.30438],[0.47159,51.30507],[0.46977,51.30541],[0.46943,51.30551],[0.46775,51.3065],[0.46636,51.3074],[0.46531,51.30826],[0.4644,51.30921],[0.46358,51.31084],[0.46359,51.31096],[0.46359,51.31122],[0.46372,51.31151],[0.46427,51.3118],[0.46464,51.31196],[0.46466,51.31207],[0.46443,51.31238],[0.46429,51.31271],[0.46428,51.31284],[0.4642,51.31295],[0.46394,51.31315],[0.46334,51.31353],[0.46283,51.31377],[0.46185,51.31388],[0.46173,51.31396],[0.46184,51.31465],[0.4624,51.31474],[0.46379,51.31525],[0.4654,51.3159],[0.46669,51.31632],[0.46711,51.31648],[0.4672,51.31658],[0.46729,51.31673],[0.46734,51.31696],[0.46732,51.31761],[0.46719,51.31823],[0.46686,51.31839],[0.46631,51.31911],[0.46594,51.31968],[0.46582,51.32013],[0.46587,51.3205],[0.46619,51.32098],[0.46585,51.32179],[0.46562,51.32202],[0.46497,51.3223],[0.46472,51.32262],[0.46458,51.32293],[0.4645,51.32364],[0.4643,51.32483],[0.4644,51.32548],[0.46438,51.32608],[0.46474,51.32716],[0.46485,51.32742],[0.46517,51.32758],[0.46576,51.32777],[0.46588,51.32792],[0.46586,51.32802],[0.46584,51.32809],[0.46541,51.32864],[0.46486,51.32925],[0.46373,51.33043],[0.46324,51.33111],[0.46311,51.33106],[0.46178,51.33077],[0.46056,51.33074],[0.46017,51.33111],[0.45964,51.33136],[0.45898,51.3315],[0.45809,51.33154],[0.45723,51.33134],[0.45668,51.3311],[0.45617,51.33062],[0.45597,51.33017],[0.45558,51.33],[0.45473,51.33003],[0.4531,51.32996],[0.45199,51.33006],[0.45163,51.33029],[0.45183,51.33108],[0.45188,51.33125],[0.45157,51.33267],[0.45168,51.33283],[0.45183,51.33291],[0.45329,51.33311],[0.45445,51.33363],[0.45468,51.3337],[0.45633,51.33386],[0.4583,51.33429],[0.45887,51.33448],[0.45981,51.33476],[0.45956,51.33506],[0.45909,51.33573],[0.45869,51.33638],[0.45857,51.33663],[0.45857,51.33673],[0.45842,51.33723],[0.4584,51.33738],[0.45842,51.33763],[0.45837,51.33764],[0.45837,51.3377],[0.45843,51.33771],[0.45844,51.33791],[0.45839,51.33805],[0.45826,51.33824],[0.45823,51.33833],[0.45823,51.33847],[0.45828,51.3386],[0.45814,51.33857],[0.45806,51.33874],[0.45833,51.3388],[0.45832,51.33888],[0.45818,51.33919],[0.45804,51.33939],[0.45803,51.33953],[0.458,51.33957],[0.45793,51.33957],[0.45791,51.33961],[0.4579,51.33965],[0.45798,51.33967],[0.4579,51.34011],[0.45782,51.34013],[0.45778,51.3402],[0.45786,51.34022],[0.45789,51.34025],[0.45789,51.34064],[0.45802,51.34066],[0.45799,51.34083],[0.45792,51.34102],[0.45779,51.34123],[0.45771,51.34154],[0.45775,51.34187],[0.45781,51.34205],[0.45775,51.34206],[0.45765,51.34216],[0.4575,51.34215],[0.45741,51.34218],[0.45739,51.3422],[0.45738,51.34234],[0.45742,51.34243],[0.45762,51.34262],[0.45785,51.34293],[0.45803,51.34368],[0.45813,51.34375],[0.45829,51.34423],[0.45831,51.34465],[0.45818,51.34465],[0.45816,51.34495],[0.45798,51.34563],[0.45795,51.34589],[0.45794,51.3461],[0.45802,51.3469],[0.45804,51.347],[0.45814,51.34712],[0.45805,51.34714],[0.45803,51.34718],[0.45804,51.34749],[0.45817,51.34863],[0.45816,51.34902],[0.45847,51.34965],[0.45798,51.34973],[0.45758,51.34974],[0.45757,51.34986],[0.4578,51.35069],[0.45725,51.35075],[0.45733,51.351],[0.4574,51.35102],[0.45748,51.35112],[0.45762,51.35123],[0.4577,51.35166],[0.45772,51.35204],[0.45776,51.35218],[0.4577,51.35238],[0.45755,51.3526],[0.4574,51.35294],[0.45743,51.35311],[0.45738,51.3532],[0.4573,51.35328],[0.45733,51.3534],[0.45691,51.3536],[0.4567,51.35393],[0.45666,51.35436],[0.45681,51.35543],[0.45679,51.35662],[0.45586,51.35799],[0.45567,51.35823],[0.45558,51.3583],[0.4541,51.35831],[0.45391,51.3585],[0.45159,51.3587],[0.45128,51.35888],[0.4513,51.35914],[0.45153,51.35986],[0.45155,51.36124],[0.45075,51.36358],[0.45057,51.36434],[0.45067,51.3648],[0.45069,51.36492],[0.45114,51.36538],[0.45158,51.3655],[0.45346,51.36653],[0.45414,51.36683],[0.45421,51.36676],[0.45479,51.36697],[0.45555,51.36721],[0.45609,51.36747],[0.45675,51.36773],[0.457,51.36772],[0.45725,51.36764],[0.45734,51.36763],[0.45741,51.36765],[0.45751,51.36783],[0.45775,51.36803],[0.45808,51.36826],[0.45836,51.36842],[0.45974,51.36894],[0.46051,51.36932],[0.46107,51.3695],[0.46153,51.36958],[0.46179,51.36965],[0.46277,51.37019],[0.46353,51.37052],[0.46413,51.3707],[0.46558,51.3719],[0.46684,51.37278],[0.46709,51.37284],[0.46729,51.37293],[0.4677,51.37324],[0.46786,51.37329],[0.46833,51.37329],[0.46947,51.37341],[0.47047,51.37344],[0.47073,51.37347],[0.47138,51.37364],[0.47157,51.37365],[0.47196,51.37371],[0.4723,51.37382],[0.47248,51.37386],[0.47271,51.37385],[0.47376,51.37411],[0.47509,51.37414],[0.47629,51.37432],[0.47669,51.37448],[0.47779,51.37487],[0.47847,51.37517],[0.47932,51.37542],[0.47974,51.3753],[0.48072,51.37541],[0.4822,51.37598],[0.4823,51.37617],[0.48259,51.37635],[0.48274,51.37642],[0.48285,51.37645],[0.48298,51.37643],[0.48303,51.3764],[0.48316,51.37648],[0.48332,51.37652],[0.48339,51.37664],[0.48346,51.37672],[0.48388,51.37692],[0.48583,51.37766],[0.48741,51.3782],[0.48817,51.37843],[0.48834,51.37852],[0.48882,51.37864],[0.48885,51.37868],[0.4891,51.37885],[0.49013,51.37943],[0.49214,51.38058],[0.49349,51.38162],[0.49432,51.3823],[0.49453,51.38245],[0.49465,51.3825],[0.49539,51.38317],[0.49656,51.38437],[0.49722,51.38511],[0.49749,51.38544],[0.49809,51.38629],[0.49832,51.38665],[0.49818,51.38669],[0.49807,51.38675],[0.49794,51.38689],[0.49767,51.38713],[0.49745,51.3875],[0.49741,51.38762],[0.49741,51.38782],[0.49746,51.38784],[0.4971,51.38792],[0.4972,51.38801],[0.49775,51.38838],[0.49804,51.38861],[0.49822,51.38873],[0.49832,51.38886],[0.49913,51.3895],[0.49952,51.38948],[0.49966,51.38953],[0.49982,51.38975],[0.50016,51.39001],[0.50021,51.3901],[0.50022,51.3902],[0.50048,51.39014],[0.50102,51.39098],[0.50125,51.39122],[0.50157,51.39146],[0.50172,51.39155],[0.50185,51.39147],[0.50194,51.39152],[0.50164,51.39168],[0.50078,51.39222],[0.50312,51.39046],[0.50489,51.39084],[0.50577,51.39151],[0.50505,51.39287],[0.50846,51.39405],[0.50939,51.3937],[0.50988,51.39184],[0.50967,51.39135],[0.50717,51.39044],[0.50972,51.38685],[0.5138,51.38518],[0.51308,51.38364],[0.51512,51.38341],[0.51543,51.384]]]},"properties":{"name":"Draft River Medway "}}
]}
